,type,Hospital Name,CMS Certification Number,Beds,ADDRESS,CITY,STATE,ZIP,Telephone,rural ,mua,X,Y,size
0,Cancer Treatment Center,ALABAMA CANCER CARE,,,1608 GLENN BLVD SW,FORT PAYNE,AL,35968,2568453500,Yes,Yes,-85.7544996056,34.4378793058,5
1,Cancer Treatment Center,ALABAMA CANCER CARE LLC,,,355 SO 2ND ST,GADSDEN,AL,35901,2565470536,No,Yes,-86.0027886024,34.0086059524,5
2,Radiology Only,Baptist Health Brookwood Hospital,10139.0,595,2010 Brookwood Medical Center Drive,Birmingham,AL,35209,(833) 251-9895,No,No,-86.7760221878,33.4633123146,5
3,Radiology Only,Baptist Health Princeton Hospital,10103.0,303,701 Princeton Avenue Southwest,Birmingham,AL,35211,(833) 251-9897,No,Yes,-86.845779655,33.4992445696,5
4,Chemotherapy Only,Baptist Medical Center South,10023.0,408,2105 East South Boulevard,Montgomery,AL,36116,(334) 288-2100,No,No,-86.2774737115,32.327160678,5
5,Cancer Treatment Center,"CANCER CENTER OF HUNTSVILLE, THE",,,"201 SIVLEY ROAD, SW, SUITE 200",HUNTSVILLE,AL,35801,2562651822,No,Yes,-86.5822039203,34.7210372122,5
6,Chemotherapy Only,Children's Hospital of Alabama,13300.0,351,1600 Seventh Avenue South,Birmingham,AL,35233,(205) 638-9100,No,Yes,-86.8049895423,33.503437449,5
7,Chemotherapy Only,Coosa Valley Medical Center,10164.0,142,315 West Hickory Street,Sylacauga,AL,35150,(256) 401-4000,Yes,Yes,-86.254496568,33.1647495102,5
8,Chemotherapy Only,D.W. McMillan Memorial Hospital,10099.0,46,1301 Belleville Avenue,Brewton,AL,36426,(251) 867-8061,Yes,Yes,-87.0725387181,31.1273937491,5
9,Chemo and Radiology,DCH Regional Medical Center,10092.0,494,809 University Boulevard East,Tuscaloosa,AL,35401,(205) 759-7111,No,Yes,-87.5268177537,33.20628666,5
10,Chemotherapy Only,Decatur Morgan Hospital,10085.0,374,1201 Seventh Street Southeast,Decatur,AL,35601,(256) 341-2000,No,No,-86.9719216819,34.5911336386,5
11,Cancer Treatment Center,E L SPENCER JR & RUTH PRIESTER SPENCER CANCER CTR,,,2501 VILLAGE PROFESSIONAL DRIVE,OPELIKA,AL,36801,3345288455,No,Yes,-85.4147541171,32.647026448,5
12,Chemo and Radiology,East Alabama Medical Center,10029.0,288,2000 Pepperell Parkway,Opelika,AL,36801,(334) 749-3411,No,Yes,-85.4040920573,32.6380756836,5
13,Radiology Only,Gadsden Regional Medical Center,10040.0,190,1007 Goodyear Avenue,Gadsden,AL,35903,(256) 494-4000,No,Yes,-85.9652347425,34.0086256079,5
14,Cancer Treatment Center,GRANDVIEW CANCER CENTER,,,"3670 GRANDVIEW PARKWAY, SUITE 100",BIRMINGHAM,AL,35243,2059714581,No,No,-86.7209770562,33.4339949318,5
15,Radiology Only,Grandview Medical Center,10104.0,431,3690 Grandview Parkway,Birmingham,AL,35243,(205) 971-1000,No,No,-86.7204633293,33.4343438286,5
16,Chemotherapy Only,Helen Keller Hospital,10019.0,178,1300 South Montgomery Avenue,Sheffield,AL,35660,(256) 386-4196,No,Yes,-87.6989408898,34.7459247591,5
17,Chemotherapy Only,Huntsville Hospital,10039.0,939,245 Governors Drive,Huntsville,AL,35801,(256) 265-1000,No,No,-86.5816672859,34.7197386612,5
18,Chemotherapy Only,Jackson Hospital,10024.0,278,1725 Pine Street,Montgomery,AL,36106,(334) 293-8000,No,Yes,-86.2851175043,32.3666339099,5
19,Cancer Treatment Center,MARSHALL CANCER CARE CENTER,,,11491 US HWY 431,ALBERTVILLE,AL,35950,2565718139,Yes,Yes,-86.2732973445,34.3000703325,5
20,Chemo and Radiology,Marshall Medical Center South,10005.0,182,2505 US Highway 431,Boaz,AL,35957,(256) 593-8310,Yes,Yes,-86.1596107418,34.2219217421,5
21,Chemotherapy Only,Mizell Memorial Hospital,10007.0,59,702 North Main Street,Opp,AL,36467,(334) 493-3541,Yes,Yes,-86.2553863908,31.2920202787,5
22,Chemo and Radiology,Mobile Infirmary Medical Center,10113.0,579,5 Mobile Infirmary Circle,Mobile,AL,36607,(251) 435-2400,No,Yes,-88.0804242697,30.695508309,5
23,Chemotherapy Only,Monroe County Hospital,10120.0,46,2016 South Alabama Avenue,Monroeville,AL,36460,(251) 575-3111,Yes,Yes,-87.3194692504,31.4976584965,5
24,Cancer Treatment Center,MONTGOMERY CANCER CENTER,,,4145 CARMICHAEL ROAD,MONTGOMERY,AL,36106,3342732377,No,No,-86.2373279157,32.3582765238,5
25,Cancer Treatment Center,MONTGOMERY CANCER CENTER - PRATTVILLE,,,645 MCQUEEN SMITH ROAD SUITE 207,PRATTVILLE,AL,36066,3343511004,No,Yes,-86.4203209553,32.4802829616,5
26,Radiology Only,North Alabama Medical Center,10006.0,223,1701 Veterans Drive,Florence,AL,35630,(256) 629-1000,No,No,-87.6500738075,34.8037033131,5
27,Chemotherapy Only,North Baldwin Infirmary,10129.0,81,1815 Hand Avenue,Bay Minette,AL,36507,(251) 937-5521,Yes,Yes,-87.7840532492,30.9039853098,5
28,Chemo and Radiology,RMC Anniston,10078.0,350,400 East Tenth Street,Anniston,AL,36207,(256) 235-5121,No,Yes,-85.8235966721,33.6570948752,5
29,Chemo and Radiology,Russell Medical Center,10065.0,45,3316 Highway 280,Alexander City,AL,35010,(256) 329-7100,Yes,Yes,-85.9689826267,32.931504237,5
30,Chemo and Radiology,Southeast Health Medical Center,10001.0,345,1108 Ross Clark Circle,Dothan,AL,36301,(334) 793-8111,No,Yes,-85.3614404916,31.2154798402,5
31,Cancer Treatment Center,SOUTHEASTERN SKIN CANCER & DERMATOLOGY,,,104J E BRISCOE WAY,MADISON,AL,35758,2567053000,No,Yes,-86.7376568759,34.6810074219,5
32,Cancer Treatment Center,SOUTHERN CANCER CENTER,,,6701 AIRPORT BLVD,MOBILE,AL,36608,2516256896,No,No,-88.1966747289,30.6809135716,5
33,Cancer Treatment Center,SOUTHERN CANCER CENTER PC,,,29653 ANCHOR CROSS BLVD,DAPHNE,AL,36526,2516256896,Yes,Yes,-87.8666143249,30.6570259019,5
34,Cancer Treatment Center,SOUTHERN CANCER CENTER PC,,,3719 DAUPHIN STREET 1ST FLOOR,MOBILE,AL,36608,2516256896,No,No,-88.1321617347,30.6856459103,5
35,Cancer Treatment Center,SOUTHERN CANCER CENTER PC,,,"669 S MCKENZIE STREET, SUITE 103",FOLEY,AL,36535,2516256896,Yes,Yes,-87.6822729724,30.4003373256,5
36,Cancer Treatment Center,SUNRISE SKIN CANCER SURGERY CENTER,,,70 MIDTOWN PARK E SUITE A,MOBILE,AL,36606,2515446406,No,No,-88.1198493057,30.6871169762,5
37,Radiology Only,Thomas Hospital,10100.0,180,750 Morphy Avenue,Fairhope,AL,36532,(251) 928-2375,Yes,Yes,-87.889203554,30.5199645183,5
38,Chemotherapy Only,Troy Regional Medical Center,10126.0,59,1330 Highway 231 South,Troy,AL,36081,(334) 670-5000,Yes,Yes,-85.9452006528,31.7802442199,5
39,Cancer Treatment Center,UAB CANCER CENTER AT RUSSELL MEDICAL,,,3446 HIGHWAY 280,ALEXANDER CITY,AL,35011,2563297888,Yes,Yes,-85.965643775,32.9285667499,5
40,Chemo and Radiology,UAB Hospital,10033.0,1306,1802 Sixth Avenue South,Birmingham,AL,35233,(205) 934-3411,No,Yes,-86.8029381553,33.5059710469,5
41,Radiology Only,UAB St. Vincent's Birmingham,10056.0,399,810 Saint Vincent's Drive,Birmingham,AL,35205,(205) 939-7000,No,No,-86.7887400495,33.5079583542,5
42,Radiology Only,UAB St. Vincent's East,10011.0,322,50 Medical Park East Drive,Birmingham,AL,35235,(205) 838-3000,No,No,-86.6656349537,33.5945971001,5
43,Cancer Treatment Center,UNIV SO ALABAMA MITCHELL CANCER INSTITUE FAIRHOPE,,,1047 FAIRHOPE AVENUE,FAIRHOPE,AL,36532,2514717226,Yes,Yes,-87.8806188926,30.5236906933,5
44,Cancer Treatment Center,UNIV SOUTH ALABAMA MITCHELL CANCER SPRINGHILL,,,101 MEMORIAL HOSPITAL DRIVE  SUITE 302,MOBILE,AL,36608,2514717226,No,No,-88.1307291836,30.6830387193,5
45,Cancer Treatment Center,UNIVERSITY OF SO AL MITCHELL CANCER INSTITUTE,,,1660 SPRINGHILL AVE,MOBILE,AL,36604,2516658000,No,Yes,-88.0785925724,30.6922917118,5
46,Chemotherapy Only,USA Health Children's and Women's Hospital,13301.0,245,1700 Center Street,Mobile,AL,36604,(251) 415-1000,No,Yes,-88.0784291253,30.6964312404,5
47,Chemotherapy Only,USA Health University Hospital,10087.0,264,2451 Fillingim Street,Mobile,AL,36617,(251) 471-7000,No,Yes,-88.101623863,30.7078876257,5
48,Cancer Treatment Center,USA MITCHELL CANCER INSTITUTE ONCOLOGY,,,1660 SPRINGHILL AVENUE,MOBILE,AL,36604,2514459680,No,Yes,-88.0785925724,30.6922917118,5
49,Chemotherapy Only,Whitfield Regional Hospital,10112.0,67,105 Highway 80 East,Demopolis,AL,36732,(334) 289-4000,Yes,Yes,-87.8364607635,32.5037463813,5
50,Cancer Treatment Center,"WHITFIELD REGIONAL HOSPITAL, CANCER CARE CENTER",,,105 US HWY 80 EAST,DEMOPOLIS,AL,36732,3342872644,Yes,Yes,-87.8364607635,32.5037463813,5
51,Cancer Treatment Center,A O P PA DBA CENTRAL GEORGIA CANCER CARE,,,114 SUTHERLIN DRIVE C 1,WARNER ROBINS,GA,31088,4787437070,Yes,Yes,-83.6698288488,32.5486788724,5
52,Cancer Treatment Center,A O P PA DBA CENTRAL GEORGIA CANCER CARE,,,"800 FIRST STREET, SUITE 410",MACON,GA,31201,4787437070,No,Yes,-83.6351836769,32.8319696816,5
53,Cancer Treatment Center,ACWORTH DERMATOLOGY & SKIN CANCER,,,4450 CALIBRE XING NW SUITE 1208,ACWORTH,GA,30101,6785058030,No,No,-84.7223292593,34.0637986055,5
54,Chemo and Radiology,AdventHealth Gordon,110023.0,69,1035 Red Bud Road,Calhoun,GA,30701,0,Yes,Yes,-84.926075472,34.5119339156,5
55,Chemotherapy Only,AdventHealth Redmond,110168.0,237,501 Redmond Road,Rome,GA,30165,0,No,Yes,-85.1949421154,34.2781652344,5
56,Cancer Treatment Center,"ALLEN DERMATOLOGY AND SKIN CANCER CENTER, LLC",,,"520 CHARTER BOULEVARD, SUITE 100",MACON,GA,31210,4784776700,No,Yes,-83.6922630474,32.8718601543,5
57,Cancer Treatment Center,"AMERICAN ONCOLOCY PARTNERS, PA DBA CANCER & BLOOD",,,"101 GREENFIELD DRIVE, SUITE 220",CUMMING,GA,30040,4708397010,No,Yes,-84.1467910232,34.1823327109,5
58,Cancer Treatment Center,"AMERICAN ONCOLOGY PARTNERS, P A",,,1206 ALICE STREET,WAYCROSS,GA,31501,9122851140,Yes,Yes,-82.3536192637,31.2189553125,5
59,Cancer Treatment Center,"AMERICAN ONCOLOGY PARTNERS, P A",,,1601 FAIR ROAD SUITE 900,STATESBORO,GA,30458,9126922000,Yes,Yes,-81.7646655914,32.4094301054,5
60,Cancer Treatment Center,"AMERICAN ONCOLOGY PARTNERS, PA",,,"1 MEADOWS PKWY, SUITE B",VIDALIA,GA,30474,9125355840,Yes,Yes,-82.3774150677,32.2088582032,5
61,Cancer Treatment Center,"AMERICAN ONCOLOGY PARTNERS, PA",,,"4700 WATERS AVENUE, SUITE 201",SAVANNAH,GA,31404,9126922000,No,No,-81.0915529174,32.0311789131,5
62,Cancer Treatment Center,"AMERICAN ONCOLOGY PARTNERS, PA",,,"6985 MCGINNIS FERRY ROAD, SUITE 100",JOHNS CREEK,GA,30097,6787266200,No,No,-84.1558660772,34.0606873688,5
63,Cancer Treatment Center,AOP PA DBA LOW COUNTRY CANCER CARE ASSOCIATES,,,"740 E GENERAL STEWART WAY, SUITE 210 B",HINESVILLE,GA,31313,9126922000,No,Yes,-81.5800662439,31.8533067554,5
64,Chemo and Radiology,Archbold Medical Center,110038.0,301,915 Gordon Avenue,Thomasville,GA,31792,0,Yes,Yes,-83.9733757004,30.8248018058,5
65,Cancer Treatment Center,ATLANTA CANCER CARE - DECATUR,,,"2545 LAWRENCEVILLE HWY, SUITE 300",DECATUR,GA,30033,4043211950,No,No,-84.2637283468,33.8215278666,5
66,Cancer Treatment Center,ATLANTA CANCER CARE CANTON OFFICE,,,"460 NORTHSIDE CHEROKEE BLVD, SUITE 450",CANTON,GA,30115,7707213800,No,No,-84.4658673296,34.2280634559,5
67,Cancer Treatment Center,ATLANTA SKIN CANCER SPECIALISTS,,,"3330 PRESTON RIDGE ROAD, SUITE 280",ALPHARETTA,GA,30005,4044463200,No,No,-84.2654633169,34.0712388857,5
68,Chemotherapy Only,Atrium Health Floyd,110054.0,299,304 Turner McCall Boulevard,Rome,GA,30165,0,No,Yes,-85.1797774086,34.2604265289,5
69,Chemotherapy Only,Atrium Health Navicent,110107.0,660,777 Hemlock Street,Macon,GA,31201,0,No,Yes,-83.6363981309,32.8331404239,5
70,Radiology Only,Atrium Health Navicent Baldwin,110150.0,101,821 North Cobb Street,Milledgeville,GA,31061,0,Yes,Yes,-83.24599825,33.0888753492,5
71,Cancer Treatment Center,"CANCER CENTER OF MIDDLE GEORGIA, LLC",,,2400 BELLEVUE ROAD STE 26,DUBLIN,GA,31021,4782728270,Yes,Yes,-82.942929083,32.5283417769,5
72,Chemo and Radiology,Candler Hospital,110024.0,308,5353 Reynolds Street,Savannah,GA,31405,0,No,No,-81.1004459491,32.0282721948,5
73,Cancer Treatment Center,CARROLLTON DERMATOLOGY & SKIN CANCER ASSOCIATES,,,410 DIXIE STREET,CARROLLTON,GA,30117,7708340820,Yes,Yes,-85.0722525106,33.5748633759,5
74,Radiology Only,CHI Memorial Hospital Georgia,110236.0,35,100 Gross Crescent Circle Fort,Fort Oglethorpe,GA,30742,0,No,Yes,-85.2628718248,34.9469733401,5
75,Chemo and Radiology,City of Hope Atlanta Comprehensive Care and Research Center,110233.0,50,600 Celebrate Life Parkway,Newnan,GA,30265,0,Yes,Yes,-84.7579797566,33.3863324967,5
76,Chemotherapy Only,Coffee Regional Medical Center,110089.0,82,1101 Ocilla Road,Douglas,GA,31533,0,Yes,Yes,-82.865191122,31.5102185269,5
77,Chemo and Radiology,Colquitt Regional Medical Center,110105.0,169,3131 South Main Street,Moultrie,GA,31768,0,Yes,Yes,-83.7829418777,31.1265377054,5
78,Chemotherapy Only,Crisp Regional Hospital,110104.0,208,902 North Seventh Street,Cordele,GA,31015,0,Yes,Yes,-83.7828165683,31.9774279892,5
79,Cancer Treatment Center,DERMATOLOGY AND SKIN CANCER CENTER OF AUGUSTA,,,1248 AUGUSTA WEST PARKWAY,AUGUSTA,GA,30909,7068630500,No,No,-82.0886740936,33.4792906528,5
80,Cancer Treatment Center,DIPRETA DERM MOHS SURGERY AND SKIN CANCER CTR,,,114 NORTHPARK DRIVE,BRUNSWICK,GA,31520,9122652140,No,Yes,-81.4870891448,31.1982481141,5
81,Radiology Only,Doctors Hospital of Augusta,110177.0,319,3651 Wheeler Road,Augusta,GA,30909,0,No,No,-82.0962503283,33.4868966432,5
82,Chemo and Radiology,Emory Decatur Hospital,110076.0,423,2701 North Decatur Road,Decatur,GA,30033,0,No,No,-84.2822516823,33.792265972,5
83,Radiology Only,Emory Hillandale Hospital,110226.0,90,2801 DeKalb Medical Parkway,Lithonia,GA,30058,0,No,No,-84.1469434575,33.7061129574,5
84,Chemo and Radiology,Emory Saint Joseph's Hospital,110082.0,344,5665 Peachtree Dunwoody Road,Atlanta,GA,30342,0,No,No,-84.3499956487,33.9098977269,5
85,Chemo and Radiology,Emory University Hospital,110010.0,683,1364 Clifton Road Northeast,Atlanta,GA,30322,0,No,No,-84.3212566172,33.7920966576,5
86,Chemo and Radiology,Emory University Hospital Midtown,110078.0,548,550 Peachtree Street Northeast,Atlanta,GA,30308,0,No,Yes,-84.3853128815,33.7684999238,5
87,Cancer Treatment Center,"EVERYBODY VS CANCER, INC",,,"4555 FLAT SHOALS PARKWAY, SUITE 107",DECATUR,GA,30034,4048555840,No,No,-84.2413007208,33.682971822,5
88,Cancer Treatment Center,"GA DERMATOLOGY & SKIN CANCER CENTER, LLC",,,"1111 GLYNCO PKWY, BLDG 1, STE 20",BRUNSWICK,GA,31525,9122621800,No,Yes,-81.4980023827,31.2407675391,5
89,Cancer Treatment Center,GEORGIA DERMATOLOGY & SKIN CANCER,,,408 EAST FOURTH AVE,CORDELE,GA,31010,2292761120,Yes,Yes,-83.7775523978,31.9762459732,5
90,Cancer Treatment Center,GEORGIA DERMATOLOGY & SKIN CANCER CENTER,,,2283 WRIGHTSBORO ROAD,AUGUSTA,GA,30904,7067333370,No,No,-82.0201074435,33.4679317071,5
91,Cancer Treatment Center,"GEORGIA DERMATOLOGY & SKIN CANCER CENTER, LLC",,,1006 GREENFIELD DRIVE,TIFTON,GA,31794,2292869330,Yes,Yes,-83.488747386,31.4694451361,5
92,Cancer Treatment Center,"GEORGIA DERMATOLOGY & SKIN CANCER CENTER, LLC",,,110 BOWENS MILL ROAD,DOUGLAS,GA,31533,9123843200,Yes,Yes,-82.8701097066,31.5144301818,5
93,Cancer Treatment Center,"GEORGIA DERMATOLOGY & SKIN CANCER CENTER, LLC",,,"1161 SARAHLYN LANE, SUITE A",STATESBORO,GA,30461,9124893700,Yes,Yes,-81.7396366418,32.4566206813,5
94,Cancer Treatment Center,"GEORGIA DERMATOLOGY & SKIN CANCER CENTER, LLC",,,1349 MILLSTEAD ROAD,CONYERS,GA,30012,7707857550,No,No,-84.0021882411,33.6797344795,5
95,Cancer Treatment Center,"GEORGIA DERMATOLOGY & SKIN CANCER CENTER, LLC",,,"1921 ALICE STREET, SUITE B1",WAYCROSS,GA,31501,9122870140,Yes,No,-82.3455808509,31.2254329311,5
96,Cancer Treatment Center,"GEORGIA DERMATOLOGY & SKIN CANCER CENTER, LLC",,,2701 HWY 17 CROSSROADS STE 1B,RICHMOND HILL,GA,31324,9127277550,No,Yes,-81.3149069163,31.9454554291,5
97,Cancer Treatment Center,"GEORGIA DERMATOLOGY & SKIN CANCER CENTER, LLC",,,656 SOUTH 8TH STREET,GRIFFIN,GA,30224,7702282820,No,Yes,-84.2657025365,33.237680324,5
98,Cancer Treatment Center,"GEORGIA DERMATOLOGY & SKIN CANCER CENTER, LLC",,,980 S FIRST STREET,JESUP,GA,31545,9124274270,Yes,Yes,-81.9020713875,31.6041101336,5
99,Cancer Treatment Center,GEORGIA DERMATOLOGY & SKIN CANCER CTR,,,"5400 SUTLIVE STREET, SUITE 3",SAVANNAH,GA,31405,9122013820,No,No,-81.0945046884,32.0278592184,5
100,Cancer Treatment Center,"GEORGIA DERMATOLOGY & SKIN CANCER CTR, LLC",,,415 EAST CROSSVILLE ROAD,ROSWELL,GA,30075,7706424640,No,No,-84.3498872706,34.0393529106,5
101,Cancer Treatment Center,GEORGIA DERMATOLOGY AND SKIN CANCER CENTER LLC,,,510 EAST OGLETHORPE HWY,HINESVILLE,GA,31313,9123697550,No,Yes,-81.5872714955,31.8496221126,5
102,Cancer Treatment Center,"GEORGIA DERMATOLOGY AND SKIN CANCER CENTER, LLC",,,631 EAST FORSYTH STREET,AMERICUS,GA,31709,2299246010,Yes,Yes,-84.2235557289,32.0733470107,5
103,Cancer Treatment Center,GEORGIA SKIN & CANCER CLINIC,,,"900 MOHAWK STREET, SUITE E",SAVANNAH,GA,31419,9129250070,No,No,-81.157282461,31.984358985,5
104,Cancer Treatment Center,GEORGIA SKIN CANCER & AESTHETIC DERMATOLOGY,,,"1000 COWLES CLINIC WAY, WILLOW COTTAGE, SUITE 100",GREENSBORO,GA,30642,7065435860,Yes,Yes,-83.2336571548,33.4494548912,5
105,Cancer Treatment Center,GEORGIA SKIN CANCER & AESTHETIC DERMATOLOGY,,,1180 RESURGENCE DRIVE SUITE 100,WATKINSVILLE,GA,30677,7065435860,No,Yes,-83.4619660319,33.9132136916,5
106,Cancer Treatment Center,GEORGIA SKIN CANCER & AESTHETIC DERMATOLOGY,,,"1498 JESSE JEWELL PARKWAY, SE, SUITE D",GAINESVILLE,GA,30501,7065435860,No,Yes,-83.8061185944,34.3070390887,5
107,Cancer Treatment Center,"GEORGIA SKIN CANCER SURGERY CENTER, LLC",,,"1180 RESURGENCE DR, SUITE 200",WATKINSVILLE,GA,30677,7065435860,No,Yes,-83.4619660319,33.9132136916,5
108,Chemo and Radiology,GRADIOy Memorial Hospital,110079.0,"1,023",80 Jesse Hill Jr. Drive Southeast,Atlanta,GA,30303,0,No,Yes,-84.3824304288,33.752284713,5
109,Chemo and Radiology,Hamilton Medical Center,110001.0,239,1200 Memorial Drive,Dalton,GA,30720,0,No,No,-84.9839629908,34.7889034705,5
110,Chemotherapy Only,Houston Medical Center,110069.0,254,1601 Watson Boulevard,Warner Robins,GA,31093,0,No,No,-83.6301654315,32.618170298,5
111,Cancer Treatment Center,KAYAL DERMATOLOGY AND SKIN CANCER,,,"141 LACY STREET, SUITE 200",MARIETTA,GA,30060,7704267180,No,No,-84.5559691845,33.9664108651,5
112,Cancer Treatment Center,"LANIER DERMATOLOGY & SKIN CANCER SPECIALISTS, PC",,,605 SOUTH ENOTA DR,GAINESVILLE,GA,30501,7705380210,No,No,-83.8143301773,34.311618332,5
113,Radiology Only,Memorial Health,110036.0,597,4700 Waters Avenue,Savannah,GA,31404,0,No,No,-81.0915529174,32.0311789131,5
114,Chemo and Radiology,Memorial Health Meadows Hospital,110128.0,57,One Meadows Lane,Vidalia,GA,30474,0,Yes,Yes,-82.3774150677,32.2088582032,5
115,Chemotherapy Only,Memorial Satilla Health,110003.0,165,1900 Tebeau Street,Waycross,GA,31501,0,Yes,No,-82.3487242322,31.226379667,5
116,Cancer Treatment Center,NANCY N AND JC LEWIS CANCER AND RESEARCH PAVILLION,,,225 CANDLER DRIVE,SAVANNAH,GA,31405,9128197070,No,No,-81.1023514071,32.0277634971,5
117,Chemo and Radiology,NGMC Gainesville,110029.0,987,743 Spring Street Northeast,Gainesville,GA,30501,0,No,Yes,-83.8175235148,34.3022308938,5
118,Chemo and Radiology,Northside Hospital Atlanta,110161.0,673,1000 Johnson Ferry Road Northeast,Atlanta,GA,30342,0,No,No,-84.3541249933,33.9079300751,5
119,Cancer Treatment Center,NORTHSIDE HOSPITAL CANCER INSTITUTE,,,"1700 TREE LANE, SUITE 490",SNELLVILLE,GA,30078,7709792830,No,No,-84.0230583418,33.8758671581,5
120,Cancer Treatment Center,NORTHSIDE HOSPITAL CANCER INSTITUTE,,,"2098 TERON TRACE, SUITE 400 - 500",DACULA,GA,30019,6787223940,No,No,-83.9030586574,34.0679976037,5
121,Cancer Treatment Center,NORTHSIDE HOSPITAL CANCER INSTITUTE,,,"3855 PLEASANT HILL ROAD, SUITE 480",DULUTH,GA,30096,7706236430,No,No,-84.1620730442,34.0011342401,5
122,Cancer Treatment Center,NORTHSIDE HOSPITAL CANCER INSTITUTE,,,"631 PROFESSIONAL DRIVE, SUITE 450",LAWRENCEVILLE,GA,30046,7709638030,No,No,-84.0185008496,33.9614990279,5
123,Cancer Treatment Center,NORTHSIDE HOSPITAL CANCER INSTITUTE - SHOA BUFORD,,,"2800 BUFORD DRIVE, SUITE 300",BUFORD,GA,30519,7704174340,No,No,-83.9935785762,34.0490063374,5
124,Chemo and Radiology,Northside Hospital Cherokee,110008.0,325,450 Northside Cherokee Boulevard,Canton,GA,30115,0,No,No,-84.4647267202,34.2303608517,5
125,Chemo and Radiology,Northside Hospital Forsyth,110005.0,376,1200 Northside Forsyth Drive,Cumming,GA,30041,0,No,Yes,-84.1397109647,34.178242555,5
126,Chemotherapy Only,Northside Hospital Gwinnett,110087.0,440,1000 Medical Center Boulevard,Lawrenceville,GA,30046,0,No,No,-84.017909674,33.9635282028,5
127,Cancer Treatment Center,NORTHSIDE HOSPITAL/ ATLANTA CANCER CARE,,,1050 EAGLES LANDING PARKWAY SUITE 302,STOCKBRIDGE,GA,30281,7705070070,No,Yes,-84.223056838,33.5113441821,5
128,Cancer Treatment Center,NSH/GEORGIA CANCER SPEC - GWINNETT,,,"698 DULUTH HIGHWAY, SUITE 201",LAWRENCEVILLE,GA,30046,4042102710,No,No,-84.0122963134,33.9663359728,5
129,Chemo and Radiology,Phoebe Putney Memorial Hospital,110007.0,371,417 West Third Avenue,Albany,GA,31701,0,No,Yes,-84.1576425378,31.5902481422,5
130,Chemotherapy Only,Phoebe Sumter Medical Center,110044.0,54,126 Hwy 280 West,Americus,GA,31719,0,Yes,Yes,-84.2551612776,32.0643628226,5
131,Chemo and Radiology,Piedmont Athens Regional Medical Center,110074.0,391,1199 Prince Avenue,Athens,GA,30606,0,No,No,-83.3983381667,33.9624194866,5
132,Chemo and Radiology,Piedmont Atlanta Hospital,110083.0,569,1968 Peachtree Road Northwest,Atlanta,GA,30309,0,No,No,-84.3936298249,33.8081868104,5
133,Cancer Treatment Center,PIEDMONT CANCER INSTITUTE,,,1240 EAGLES LANDING PARKWAY,STOCKBRIDGE,GA,30281,6788549500,No,Yes,-84.2272736059,33.5078302787,5
134,Cancer Treatment Center,PIEDMONT CANCER INSTITUTE,,,4877 BILL GARDNER PARKWAY,LOCUST GROVE,GA,30248,6783997190,No,Yes,-84.1201030948,33.3539525761,5
135,Cancer Treatment Center,PIEDMONT CANCER INSTITUTE - SANDY SPRINGS,,,"755 MOUNT VERNON HIGHWAY, SUITE 320",ATLANTA,GA,30328,6788291060,No,No,-84.362291733,33.9284464176,5
136,Cancer Treatment Center,"PIEDMONT CANCER INSTITUTE, PC",,,"1267 HIGHWAY 54 WEST, SUITE 4200",FAYETTEVILLE,GA,30214,6788291060,No,No,-84.5090841709,33.4507964568,5
137,Cancer Treatment Center,"PIEDMONT CANCER INSTITUTE, PC",,,"1800 HOWELL MILL ROAD,  SUITE 800",ATLANTA,GA,30318,4043509850,No,No,-84.4137074167,33.8043263572,5
138,Cancer Treatment Center,"PIEDMONT CANCER INSTITUTE, PC",,,"775 POPLAR ROAD, SUITE 310",NEWNAN,GA,30265,6788291060,Yes,Yes,-84.7538498252,33.3592524116,5
139,Radiology Only,Piedmont Cartersville Medical Center,110030.0,119,960 Joe Frank Harris Parkway,Cartersville,GA,30120,0,Yes,Yes,-84.7963373572,34.2000444719,5
140,Chemo and Radiology,Piedmont Columbus Regional - Midtown Campus,110064.0,384,710 Center Street,Columbus,GA,31901,0,No,Yes,-84.981611364,32.4815872696,5
141,Chemo and Radiology,Piedmont Fayette Hospital,110215.0,294,1255 Highway 54 West,Fayetteville,GA,30214,0,No,No,-84.5084841943,33.4508641825,5
142,Chemo and Radiology,Piedmont Henry Hospital,110191.0,386,1133 Eagle's Landing Parkway,Stockbridge,GA,30281,0,No,Yes,-84.2281514426,33.511460942,5
143,Chemo and Radiology,Piedmont Newnan Hospital,110229.0,177,745 Poplar Road,Newnan,GA,30265,0,Yes,Yes,-84.7553294826,33.3594060519,5
144,Chemotherapy Only,Piedmont Newton Hospital,110018.0,94,5126 Hospital Drive NE,Covington,GA,30014,0,No,Yes,-83.8484342135,33.602163947,5
145,Chemotherapy Only,Piedmont Rockdale Hospital,110091.0,141,1412 Milstead Avenue,Conyers,GA,30012,0,No,No,-84.0020640213,33.6821467912,5
146,Chemotherapy Only,Saint Francis -Emory Healthcare,110129.0,325,2122 Manchester Expressway,Columbus,GA,31904,0,No,No,-84.9608954903,32.5068869547,5
147,Chemo and Radiology,SGMC Health Main,110122.0,275,2501 North Patterson Street,Valdosta,GA,31602,0,No,No,-83.2888235726,30.8624503393,5
148,Chemotherapy Only,Shepherd Center,112003.0,135,2020 Peachtree Road Northwest,Atlanta,GA,30309,0,No,No,-84.3928940615,33.8099883328,5
149,Cancer Treatment Center,SKIN CANCER & COSMETIC DERMATOLOGY CENTER,,,"101 RIVERSTONE VISTA, SUITE 215",BLUE RIDGE,GA,30513,7062296750,Yes,Yes,-84.3022846823,34.877516909,5
150,Cancer Treatment Center,SKIN CANCER & COSMETIC DERMATOLOGY CTR,,,"1107 MEMORIAL DRIVE, SUITE 201",DALTON,GA,30720,7062777310,No,No,-84.9832109664,34.7888784505,5
151,Cancer Treatment Center,SKIN CANCER AND COSMETIC DERMATOLOGY CENTER,,,"4700 BATTLEFIELD PARKWAY, SUITE 340",RINGGOLD,GA,30736,7062296750,No,Yes,-85.1863349067,34.9326427164,5
152,Cancer Treatment Center,SKIN CANCER AND COSMETIC DERMATOLOGY CENTER INC,,,"10 MEDICAL DRIVE, NE",ROME,GA,30161,7063782240,No,Yes,-85.1466865768,34.290920186,5
153,Cancer Treatment Center,SKIN CANCER AND COSMETIC DERMATOLOGY CENTER INC,,,400 TIMMS ROAD,CALHOUN,GA,30701,7066253910,Yes,Yes,-84.9252786883,34.5133883853,5
154,Cancer Treatment Center,SKIN CANCER CENTER OF NORTH GEORGIA,,,405 FANNIN INDUSTRIAL PARK,BLUE RIDGE,GA,30513,3528123690,Yes,Yes,-84.3106131928,34.8852542438,5
155,Cancer Treatment Center,SKIN CANCER SPECIALISTS PC - CARTERSVILLE (DBA),,,10 CLOVERLEAF DRIVE,CARTERSVILLE,GA,30120,7704225560,Yes,Yes,-84.7961107105,34.1972194771,5
156,Cancer Treatment Center,"SKIN CANCER SPECIALISTS, PC",,,"1790 MULKEY RD, SUITE 1",AUSTELL,GA,30106,7709411010,No,No,-84.6055492315,33.8600278757,5
157,Chemo and Radiology,Southeast Georgia Health System - Brunswick Campus,110025.0,300,2415 Parkwood Drive,Brunswick,GA,31520,0,No,Yes,-81.4846523579,31.1738310853,5
158,Chemo and Radiology,Southeast Georgia Health System - Camden Campus,110146.0,40,2000 Dan Proctor Drive,Saint Marys,GA,31558,0,Yes,Yes,-81.6147758726,30.7813353095,5
159,Chemo and Radiology,Tanner Medical Center Carrollton,110011.0,196,705 Dixie Street,Carrollton,GA,30117,0,Yes,Yes,-85.0725487271,33.5696129517,5
160,Chemotherapy Only,Tanner Medical Center/Villa Rica,110015.0,140,601 Dallas Highway,Villa Rica,GA,30180,0,No,Yes,-84.916029761,33.744128283,5
161,Chemo and Radiology,Tift Regional Medical Center,110095.0,181,901 East 18th Street,Tifton,GA,31794,0,Yes,Yes,-83.4915145875,31.4704694047,5
162,Chemotherapy Only,Union General Hospital,110051.0,189,35 Hospital Way,Blairsville,GA,30512,0,Yes,Yes,-83.9617042355,34.8852886934,5
163,Cancer Treatment Center,"UNIVERSITY CANCER & BLOOD CENTER, LLC - BLDG 800",,,"3320 OLD JEFFERSON ROAD, BLDG 800",ATHENS,GA,30607,7063532990,No,Yes,-83.4175779873,33.9840660868,5
164,Cancer Treatment Center,"UNIVERSITY CANCER & BLOOD CENTER, LLC - COVINGTON",,,4182 HWY 278 NE,COVINGTON,GA,30014,7063532990,No,Yes,-83.8504160307,33.6028982017,5
165,Cancer Treatment Center,"UNIVERSITY CANCER & BLOOD CENTER, LLC - EATONTON",,,"119 HARMONY CROSSING, SUITE 1",EATONTON,GA,31024,7063532990,Yes,Yes,-83.2691132758,33.4245955913,5
166,Cancer Treatment Center,"UNIVERSITY CANCER & BLOOD CENTER, LLC - MONROE",,,"2151 - B WEST SPRING STREET, SUITE 200",MONROE,GA,30655,7063532990,Yes,Yes,-83.7478797062,33.8001559832,5
167,Cancer Treatment Center,"UNIVERSITY CANCER & BLOOD CENTER, LLC - WINDER",,,295 N BROAD STREET,WINDER,GA,30680,7063532990,No,No,-83.7066844961,34.0051844176,5
168,Cancer Treatment Center,"UNIVERSITY CANCER & BLOOD CENTER, LLC-COMMERCE",,,110 MERCER PLACE,COMMERCE,GA,30529,7063532990,Yes,No,-83.4536971168,34.2323614863,5
169,Cancer Treatment Center,"UNIVERSITY CANCER & BLOOD CENTER, LLC-LAVONIA",,,"355 CLEAR CREEK PARKWAY, SUITE 2007",LAVONIA,GA,30553,7063532990,Yes,Yes,-83.1320769465,34.4398410628,5
170,Cancer Treatment Center,"UNIVERSITY CANCER & BLOOD CENTER, LLC-SNELLVILLE",,,"3991 HWY78, SUITE 102",SNELLVILLE,GA,30039,7063532990,No,No,-84.0683114827,33.8382133859,5
171,Cancer Treatment Center,"UNIVERSITY CANCER AND BLOOD CENTER, LLC - TOCCOA",,,"1656 FALLS ROAD, SUITE B",TOCCOA,GA,30577,7063532990,Yes,No,-83.3491954037,34.5987689656,5
172,Chemotherapy Only,Wayne Memorial Hospital,110124.0,88,865 South First Street,Jesup,GA,31545,0,Yes,Yes,-81.8995678806,31.6031012878,5
173,Chemo and Radiology,WellStar Cobb Hospital,110143.0,387,3950 Austell Road Southwest,Austell,GA,30106,0,No,No,-84.6021830591,33.8557368023,5
174,Chemotherapy Only,WellStar Douglas Medical Center,110184.0,112,8954 Hospital Drive,Douglasville,GA,30134,0,No,No,-84.7329655591,33.7393136759,5
175,Radiology Only,Wellstar Kennestone Regional Medical Center,110035.0,662,677 Church Street,Marietta,GA,30060,0,No,No,-84.5503114837,33.9688733844,5
176,Chemo and Radiology,Wellstar MCG Health Medical Center,110034.0,494,1120 15th Street,Augusta,GA,30912,0,No,Yes,-81.9904365959,33.4706529758,5
177,Chemotherapy Only,WellStar North Fulton Medical Center,110198.0,211,3000 Hospital Boulevard,Roswell,GA,30076,0,No,No,-84.3204769326,34.0623106081,5
178,Chemo and Radiology,WellStar Paulding Medical Center,110042.0,294,2518 Jimmy Lee Smith Parkway,Hiram,GA,30141,0,No,No,-84.7810974646,33.902395253,5
179,Chemo and Radiology,WellStar West Georgia Medical Center,110016.0,426,1514 Vernon Road,LaGrange,GA,30240,0,Yes,No,-85.0555303623,33.0322813257,5
180,Cancer Treatment Center,WINSHIP CANCER INSTITUTE EMORY MIDTOWN WEM LAB,,,"580 PEACHTREE STREET, NE",ATLANTA,GA,30308,4047127400,No,Yes,-84.3852010669,33.7702939863,5
181,Cancer Treatment Center,ABSOLUTE DERMATOLOGY & SKIN CANCER CENTER,,,"7300 ASHLAKE PARKWAY, STE 102",CHESTERFIELD,VA,23832,8043264448,No,No,-81.9731208412,36.696281562,5
182,Cancer Treatment Center,AUGUSTA CANCER DIAGNOSTICS,,,16 IVY RIDGE LANE - SUITE 138,FISHERSVILLE,VA,22939,5405692942,Yes,Yes,-81.9728747,36.6758041,5
183,Chemo and Radiology,Augusta Health & Cancer Center,490018.0,226,78 MEDICAL CENTER DRIVE,Fishersville,VA,22939,(540) 332-4000,Yes,Yes,-77.1389490446,38.7733196415,5
184,Cancer Treatment Center,BLUE RIDGE CANCER CARE - BEDFORD,,,1710 WHITFIELD DRIVE,BEDFORD,VA,24523,5405865770,Yes,Yes,-77.1044766238,38.8241102448,5
185,Cancer Treatment Center,BLUE RIDGE CANCER CARE - BLACKSBURG,,,2600 RESEARCH CENTER DRIVE - SUITE A,BLACKSBURG,VA,24060,5403815291,No,No,-77.0751237856,38.7406340329,5
186,Cancer Treatment Center,BLUE RIDGE CANCER CARE - MARION,,,1020 TERRACE DRIVE - SUITE 202,MARION,VA,24354,5409820237,Yes,No,-77.1212525,38.8336529577,5
187,Cancer Treatment Center,BLUE RIDGE CANCER CARE-LEXINGTON,,,108 HOUSTON STREET,LEXINGTON,VA,24450,5404643226,Yes,Yes,-77.1287178421,38.8894767262,5
188,Radiology Only,Bon Secours - Southside Medical Center,490067.0,300,200 Medical Park Blvd,Petersburg,VA,23805,(804) 765-5000,No,Yes,-77.1287178421,38.8894767262,5
189,Chemo and Radiology,Bon Secours Maryview Medical Center,490017.0,178,3636 High Street,Portsmouth,VA,23707,(757) 398-2200,No,Yes,-79.5183426139,37.3525780427,5
190,Cancer Treatment Center,BRAUN DERMATOLOGY & SKIN CANCER CENTER,,,"5911 KINGSTOWNE VILLAGE PARKWAY, SUITE 100",ALEXANDRIA,VA,22315,5714492555,No,No,-82.7544295521,36.8774412698,5
191,Cancer Treatment Center,CANCER CENTER OF SOUTHWEST VIRGINIA,,,1114 EAST MAIN STREET,LEBANON,VA,24266,2768894941,Yes,Yes,-80.4040275609,37.1954398636,5
192,Cancer Treatment Center,CANCER CENTER OF SOUTHWEST VIRGINIA,,,6719 GOV G C PEERY HIGHWAY,RICHLANDS,VA,24641,2769632535,Yes,Yes,-80.4085589854,37.1857563766,5
193,Cancer Treatment Center,"CANCER CENTER OF THE PIEDMONT, INC",,,173 EXECUTIVE DRIVE,DANVILLE,VA,24541,4347920123,No,Yes,-78.4991600171,38.0321648987,5
194,Cancer Treatment Center,CANCER OUTREACH ASSOCIATES,,,6719 GOVERNOR G C PEERY HIGHWAY - SUTIE 1200,RICHLANDS,VA,24641,2769632535,Yes,Yes,-78.4711492893,38.0320509048,5
195,Cancer Treatment Center,CANCER OUTREACH ASSOCIATES PC,,,104 ABINGDON PLACE,ABINGDON,VA,24211,2766761860,Yes,Yes,-78.4438078564,38.0245853113,5
196,Chemotherapy Only,Carilion Franklin Memorial Hospital,490089.0,37,390 South Main St,Rocky Mount,VA,24151,(540) 483-5277,Yes,Yes,-78.4413372066,38.0214933949,5
197,Chemotherapy Only,Carilion New River Valley Medical Center,490042.0,130,2900 Lamb Circle,Christiansburg,VA,24073,(540) 731-2000,No,No,-78.4982330624,38.0317041874,5
198,Chemo and Radiology,Carilion Roanoke Memorial Hospital,490024.0,719,1906 Belleview Ave SE,Roanoke,VA,24014,(540) 981-7000,No,No,-76.2454421894,36.7454254566,5
199,Cancer Treatment Center,CENTER FOR HEALTH AND CANCER PREVENTION,,,1301 FIRST COLONIAL ROAD - SUITE 201,VIRGINIA BEACH,VA,23454,7574124919,No,No,-76.2455297803,36.7433152705,5
200,Chemo and Radiology,Centra Lynchburg General Hospital,490021.0,517,1901 Tat Springs Road,Lynchburg,VA,24501,(434) 200-3000,No,No,-77.6801085182,37.4014976376,5
201,Chemotherapy Only,Centra Southside Community Hospital,490090.0,77,800 Oak Street,Farmville,VA,23901,(434) 392-8811,Yes,Yes,-80.5057679398,37.0890607299,5
202,Chemo and Radiology,Chesapeake Regional Medical Center,490120.0,302,736 Battlefield Blvd. N,Chesapeake,VA,23320,(757) 312-8121,No,No,-78.0121576125,38.455369998,5
203,Chemotherapy Only,Children's Hospital of The King's Daughters,493301.0,202,601 Children's Lane,Norfolk,VA,23507,(757) 668-7000,No,Yes,-79.432559367,36.5945577373,5
204,Chemo and Radiology,Chippenham Hospital,490112.0,793,7101 Jahnke Road,Richmond,VA,23225,(804) 438-0000,No,Yes,-79.4015262925,36.5525357782,5
205,Chemo and Radiology,Clinch Valley Medical Center,490060.0,175,6801 Gov George C. Peery Hwy,Richlands,VA,24641,(276) 596-6000,Yes,Yes,-77.3791444662,38.8843146474,5
206,Chemo and Radiology,Culpeper Medical Center,490019.0,70,501 Sunset Lane,Culpeper,VA,22701,(540) 829-4100,Yes,Yes,-77.2241825225,38.8625247585,5
207,Cancer Treatment Center,EMILY COURIC CLINICAL CANCER CENTER,,,1240 LEE STREET,CHARLOTTESVILLE,VA,22903,4349249202,No,No,-77.2396260115,38.8643549471,5
208,Chemotherapy Only,Fauquier Hospital,490023.0,97,500 Hospital Drive,Warrenton,VA,20186,(540) 316-5000,No,No,-77.3007316782,38.8498877403,5
209,Cancer Treatment Center,GORDON L MORRIS MD ROBERT S PRITCHARD,,,459 LOCUST AVE,CHARLOTTESVILLE,VA,22902,4349828390,No,No,-77.2260267927,38.8582952502,5
210,Chemo and Radiology,Henrico Doctors' Hospital,490118.0,766,1602 Skipwith Road,Richmond,VA,23229,(804) 289-4500,No,No,-78.4035796665,37.303519434,5
211,Radiology Only,Inova Alexandria Hospital,490040.0,303,4320 Seminary Road,Alexandria,VA,22304,(703) 504-3000,No,No,-78.9947484243,38.0771128964,5
212,Radiology Only,Inova Fair Oaks Hospital,490101.0,174,3600 Joseph Siewick Dr.,Fairfax,VA,22033,(703) 391-3600,No,No,-78.9868255979,38.0942190616,5
213,Chemo and Radiology,Inova Fairfax Medical Campus,490063.0,1014,3300 Gallows Road,Falls Church,VA,22042,(703) 776-4001,No,No,-77.4823572941,38.3098297325,5
214,Radiology Only,Inova Loudoun Hospital,490043.0,311,44045 Riverside Parkway,Leesburg,VA,20176,(703) 858-6000,No,Yes,-76.5402718617,37.4200228171,5
215,Chemotherapy Only,Inova Mount Vernon Hospital,490122.0,218,2501 Parkers Lane,Alexandria,VA,22306,(703) 664-7000,No,No,-76.3923523093,37.0567201204,5
216,Chemo and Radiology,Johnston Memorial Hospital,490053.0,100,16000 Memorial Drive,Abingdon,VA,24211,(276) 258-1000,Yes,Yes,-78.853900013,38.4061874628,5
217,Chemotherapy Only,LewisGale Hospital Montgomery,490110.0,88,3700 S Main St,Blacksburg,VA,24060,(540) 951-1111,No,No,-77.4767041195,39.0795488698,5
218,Chemo and Radiology,LewisGale Hospital Pulaski,490116.0,60,2400 Lee Highway,Pulaski,VA,24301,(540) 994-8100,Yes,Yes,-82.0599410972,36.9033807874,5
219,Chemo and Radiology,LewisGale Medical Center,490048.0,378,1900 Electric Road,Salem,VA,24153,(540) 776-4000,No,No,-82.078577756,36.8989449585,5
220,Cancer Treatment Center,LMG CANCER & INFUSION CENTER,,,"1860 TOWN CENTER DRIVE, #120",RESTON,VA,20190,7034230033,No,No,-77.4753206863,39.0748071852,5
221,Chemo and Radiology,Lonesome Pine Hospital,490114.0,109,1990 Holton Ave East,Big Stone Gap,VA,24219,(276) 523-3111,Yes,Yes,-79.4442749207,37.7777349939,5
222,Chemo and Radiology,Mary Washington Hospital,490022.0,414,1001 Sam Perry Blvd,Fredericksburg,VA,22401,(540) 741-1100,No,No,-79.1700726092,37.4161241424,5
223,Cancer Treatment Center,MASSEY CANCER CENTER RADIOIATION ONCOLOGY,,,8222 MEADOWBRIDGE ROAD,MECHANICSVILLE,VA,23116,8045591835,No,No,-79.1705663871,37.4136267125,5
224,Cancer Treatment Center,PEARSON CANCER CENTER,,,1701 THOMSON DR,LYNCHBURG,VA,24501,4342007530,No,Yes,-77.4871421873,38.7686308049,5
225,Cancer Treatment Center,PENINSULA DERMATOLOGY SKIN CANCER SURGERY CENTER,,,11844 ROCK LANDING DRIVE - SUITE B,NEWPORT NEWS,VA,23606,7578730161,No,No,-81.5049081489,36.8467870573,5
226,Cancer Treatment Center,PENINSULA DERMATOLOGY SKIN CANCER SURGERY CENTER,,,1601 COMMONWEALTH AVE,WILLIAMSBURG,VA,23185,7572599466,No,Yes,-81.4887204308,36.8517779777,5
227,Chemotherapy Only,Prince William Medical Center,490045.0,136,8700 Sudley Road,Manassas,VA,20110,(703) 369-8000,No,Yes,-77.386140757,37.6263082435,5
228,Chemo and Radiology,Reston Hospital Center,490107.0,231,1850 Town Center Parkway,Reston,VA,20190,(703) 689-9000,No,No,-76.4672660718,37.0947382958,5
229,Chemotherapy Only,Richmond Community Hospital,490094.0,96,1500 North 28th St,Richmond,VA,23223,(804) 225-1700,No,Yes,-76.4844639769,37.0652388581,5
230,Cancer Treatment Center,RIVERSIDE CANCER SPECIALIST OF TIDEWATER,,,5839 HARBOUR VIEW BOULEVARD - SUITE 100A,SUFFOLK,VA,23435,7573974200,No,Yes,-76.5133058543,37.1429504161,5
231,Cancer Treatment Center,RIVERSIDE CANCER SPECIALISTS OF TIDEWATER,,,110 WIMBLEDON SQUARE - SUITE E-1,CHESAPEAKE,VA,23320,7574601453,No,No,-76.3016478793,36.8613920206,5
232,Cancer Treatment Center,RIVERSIDE CANCER SPECIALISTS OF TIDEWATER,,,1200 FIRST COLONIAL ROAD - SUITE 204A,VIRGINIA BEACH,VA,23454,7573638212,No,No,-76.3047158235,36.8623069892,5
233,Chemo and Radiology,Riverside Regional Medical Center,490052.0,433,500 J Clyde Morris Blvd,Newport News,VA,23601,(757) 594-2000,No,No,-82.6022882865,36.9397482727,5
234,Chemo and Radiology,Riverside Shore Memorial Hospital & Cancer Institute,490037.0,52,20480 Market STREET,Onancock,VA,23417,(757) 302-2100,Yes,Yes,-75.7213381285,37.6999687858,5
235,Radiology Only,Riverside Walter Reed Hospital,490130.0,67,7547 Medical Dr.,Gloucester,VA,23061,(804) 693-8800,No,No,-77.3610719095,37.1840653276,5
236,Chemotherapy Only,Russell County Hospital,490002.0,47,58 Carroll Street,Lebanon,VA,24266,(276) 883-8000,Yes,Yes,-76.3480386959,36.8360399068,5
237,Radiology Only,Saint Mary's Hospital,490059.0,377,5801 Bremo Road,Richmond,VA,23226,(804) 285-2011,No,No,-80.7578850262,37.0693522352,5
238,Cancer Treatment Center,SAVILLE CANCER SCREENING AND,,,"8081 INNOVATION PARK DRIVE, PAVILION A 1ST FLOOR",FAIRFAX,VA,22031,5714723518,No,No,-77.365471319,38.9613595926,5
239,Radiology Only,Sentara CarePlex Hospital,490093.0,169,3000 Coliseum Dr,Hampton,VA,23666,(757) 736-1000,No,No,-77.3644460446,38.9626273555,5
240,Chemotherapy Only,Sentara Halifax Regional Hospital,490013.0,44,2204 Wilbourn Ave,South Boston,VA,24592,(434) 517-3100,Yes,Yes,-77.3654433234,38.9618561785,5
241,Chemo and Radiology,Sentara Martha Jefferson Hospital,490077.0,150,500 Martha Jefferson Dr.,Charlottesville,VA,22911,(434) 654-7000,No,No,-81.8208075789,37.0939800269,5
242,Chemo and Radiology,Sentara Norfolk General Hospital,490007.0,528,600 Gresham Drive,Norfolk,VA,23507,(757) 388-3000,No,Yes,-81.8208075789,37.0939800269,5
243,Chemotherapy Only,Sentara Northern Virginia Medical Center,490113.0,147,2300 Opitz Blvd.,Woodbridge,VA,22191,(703) 523-1000,No,Yes,-81.804455,37.094316,5
244,Radiology Only,Sentara Obici Hospital,490044.0,206,2800 Goodwin Blvd,Suffolk,VA,23434,(757) 934-4000,Yes,Yes,-77.525626187,37.5158409204,5
245,Chemo and Radiology,Sentara RMH Medical Center,490004.0,238,2010 Health Campus Dr,Harrisonburg,VA,22801,(540) 689-1000,No,No,-77.5377380371,37.6036719501,5
246,Radiology Only,Sentara Virginia Beach General Hospital,490057.0,271,1060 First Colonial Road,Virginia Beach,VA,23454,(757) 395-8000,No,No,-77.4064213584,37.5401328493,5
247,Chemotherapy Only,Sentara Williamsburg Regional Medical Center,490066.0,129,100 Sentara Circle,Williamsburg,VA,23188,(757) 984-6000,No,Yes,-77.5130949903,37.5845232828,5
248,Cancer Treatment Center,SKIN CANCER SURGERY CENTER,,,1900 N BEAUREGARD STREET - SUITE 110,ALEXANDRIA,VA,22311,3015643131,No,No,-77.4296031042,37.5396217208,5
249,Cancer Treatment Center,SKIN CANCER SURGERY CENTER LTD,,,8505 ARLINGTON BOULEVARD - SUITE 200,FAIRFAX,VA,22031,3015643131,No,No,-79.9424438644,37.2520008624,5
250,Chemotherapy Only,Smyth County Community Hospital,490038.0,143,245 Medical Park Dr.,Marion,VA,24354,(276) 378-1000,Yes,No,-79.8906954191,36.9938134761,5
251,Cancer Treatment Center,SOLSTAS LAB - VIRGINIA REGIONAL CANCER CENTER,,,671 HIGHWAY 58 EAST,NORTON,VA,24273,2766795874,Yes,Yes,-80.0333640445,37.2634458063,5
252,Chemo and Radiology,Sovah Health - Danville,490075.0,252,1425 S Main St,Danville,VA,24541,(434) 799-2100,No,Yes,-78.9129682066,36.712958448,5
253,Chemo and Radiology,Stafford Hospital,490140.0,88,101 Hospital Center Blvd,Stafford,VA,22554,(540) 741-9000,No,No,-78.117194091,36.731911817,5
254,Cancer Treatment Center,TPMG CANCER CARE,,,12720 MCMANUS BOULEVARD - SUITE 307,NEWPORT NEWS,VA,23602,7572346970,No,No,-77.4070569581,38.414604109,5
255,Cancer Treatment Center,UVA CANCER CENTER - PANTOPS,,,590 PETER JEFFERSON PARKWAY - SUITE 175,CHARLOTTESVILLE,VA,22911,4349248507,No,No,-76.4419124073,36.871639945,5
256,Chemo and Radiology,UVA University Hospital,490009.0,691,1215 Lee St,Charlottesville,VA,22903,(434) 924-3627,No,No,-76.5831293709,36.7740076626,5
257,Chemo and Radiology,VCU Community Memorial Hospital & TREATMENT CTR,490098.0,205,750 LOMBARDY STREET,South Hill,VA,23970,(434) 447-3151,Yes,Yes,-76.4429729695,36.8728217934,5
258,Chemotherapy Only,VCU Health Tappahannock Hospital,490084.0,57,618 Hospital Road,Tappahannock,VA,22560,(804) 443-3311,Yes,Yes,-76.5896457138,36.7705822302,5
259,Chemo and Radiology,VCU Medical Center,490032.0,878,1250 East Marshall St,Richmond,VA,23219,(804) 828-9000,No,Yes,-76.8784092352,37.900556446,5
260,Chemo and Radiology,VHC Health,490050.0,440,1701 N George Mason Dr,Arlington,VA,22205,(703) 558-5000,No,No,-76.032539418,36.8691615839,5
261,Cancer Treatment Center,"VIRGINIA CANCER CARE, INC",,,19415 DEERFIELD AVENUE - SUITE 107,LANSDOWNE,VA,20176,7037296030,No,Yes,-76.0316184145,36.8691091132,5
262,Cancer Treatment Center,"VIRGINIA CANCER SPECIALIST, PC",,,1860 TOWN CENTER DRIVE - SUITE 460,RESTON,VA,20190,7032083996,No,No,-76.0281908028,36.8638993832,5
263,Cancer Treatment Center,"VIRGINIA CANCER SPECIALISTS, PC",,,1701 NORTH GEORGE MASON DRIVE - SUITE G101,ARLINGTON,VA,22205,7032083153,No,No,-77.8096643266,38.7119444128,5
264,Cancer Treatment Center,"VIRGINIA CANCER SPECIALISTS, PC",,,10301 DEMOCRACY LANE,FAIRFAX,VA,22030,7039344450,No,No,-76.6675354711,37.2525519306,5
265,Cancer Treatment Center,VIRGINIA DERMATOLOGY & SKIN CANCER CENTER,,,1035 CHAMPIONS WAY - SUITE 100,SUFFOLK,VA,23435,7579670790,No,Yes,-76.7419054158,37.3351523594,5
266,Cancer Treatment Center,VIRGINIA DERMATOLOGY AND SKIN CANCER CENTER,,,1069 CENTERBROOKE LANE,SUFFOLK,VA,23434,7579251860,Yes,Yes,-78.1922871425,39.193460736,5
267,Radiology Only,Winchester Medical Center,490005.0,495,1840 Amherst Srreet,Winchester,VA,22601,(540) 536-8000,No,Yes,-77.2867551061,38.635445339,5
268,Radiology Only,Wilson Medical Center,340126.0,124,1705 Tarboro Street Southwest,Wilson,NC,27893,(252) 399-8040,Yes,Yes,-82.2136576577,35.2404501733,5
269,Chemotherapy Only,Wilkes Medical Center,340064.0,87,1370 West D Street,North Wilkesboro,NC,28659,(336) 651-8100,No,Yes,-82.4886116583,35.3907244957,5
270,Chemo and Radiology,Watauga Medical Center,340051.0,121,336 Deerfield Road,Boone,NC,28607,(828) 262-4100,Yes,Yes,-82.0246915063,35.6598859726,5
271,Chemotherapy Only,WakeMed Raleigh Campus,340069.0,701,3000 New Bern Avenue,Raleigh,NC,27610,(919) 350-8000,Yes,No,-83.2026333004,35.3869761924,5
272,Cancer Treatment Center,WAKEMED CANCER CARE WAVERLY & MEDICAL,,,"210 ASHEVILLE AVE, SUITE 440",CARY,NC,27518,9193508260,Yes,Yes,-82.0674454395,35.8931161839,5
273,Cancer Treatment Center,WAKE SKIN CANCER CENTER,,,11640 NORTH PARK DR - SUITE 200,WAKE FOREST,NC,27587,9194364124,Yes,Yes,-83.3583750964,35.1943728818,5
274,Cancer Treatment Center,VIDANT EDGECOMBE HOSPITAL -,,,105 HOSPITAL DRIVE,TARBORO,NC,27886,2526417714,No,No,-80.6035554971,35.4353037735,5
275,Chemo and Radiology,UNC Rex Healthcare,340114.0,609,4420 Lake Boone Trail,Raleigh,NC,27607,(919) 784-3100,Yes,Yes,-81.5360795248,35.3016232724,5
276,Cancer Treatment Center,UNC REX CANCER CARE OF CARY,,,"150 PARKWAY OFFICE COURT, SUITE 200",CARY,NC,27518,9849742175,No,Yes,-80.8381606922,35.2046045033,5
277,Chemo and Radiology,UNC Medical Center,340061.0,932,101 Manning Drive,Chapel Hill,NC,27514,(984) 974-1000,No,No,-80.8699732837,35.0907907053,5
278,Chemotherapy Only,UNC Health Wayne,340010.0,245,2700 Wayne Memorial Drive,Goldsboro,NC,27534,(919) 736-1110,Yes,No,-80.1950922796,35.362658112,5
279,Chemo and Radiology,UNC Health Southeastern,340050.0,264,300 West 27th Street,Lumberton,NC,28359,(910) 671-5000,No,Yes,-80.5227210934,34.9751370377,5
280,Chemo and Radiology,UNC Health Pardee,340017.0,160,800 North Justice Street,Hendersonville,NC,28791,(828) 696-1000,No,No,-80.7485464964,35.3071927537,5
281,Chemo and Radiology,UNC Health Lenoir,340027.0,199,100 Airport Road,Kinston,NC,28501,(252) 522-7000,No,No,-80.2712447469,36.0895763084,5
282,Chemotherapy Only,UNC Health Johnston,340090.0,199,509 Bright Leaf Boulevard,Smithfield,NC,27577,(919) 934-8171,No,Yes,-78.0212108302,34.2179629138,5
283,Chemo and Radiology,UNC Health Blue Ridge,340075.0,156,2201 South Sterling Street,Morganton,NC,28655,(828) 580-5000,No,Yes,-81.5359098751,35.9101708168,5
284,Cancer Treatment Center,UNC DERMATOLOGY AND SKIN CANCER CENTER,,,3921 SUNSET RIDGE ROAD #202,RALEIGH,NC,27607,9849740900,Yes,Yes,-78.6331533727,35.3072390218,5
285,Chemo and Radiology,Sentara Albemarle Medical Center,340109.0,98,1144 North Road Street,Elizabeth City,NC,27909,(252) 335-0531,No,No,-78.9315061266,35.0330462237,5
286,Chemo and Radiology,Scotland Memorial Hospital,340008.0,104,500 Lauchwood Drive,Laurinburg,NC,28352,(910) 291-7000,Yes,Yes,-77.0670708721,35.1123895287,5
287,Chemotherapy Only,Rutherford Regional Health System,340013.0,133,288 South Ridgecrest Avenue,Rutherfordton,NC,28139,(828) 286-5000,No,Yes,-80.8388993893,35.2046954889,5
288,Cancer Treatment Center,REX CANCER CENTER OF WAKEFIELD,,,"11200 GOVERNOR MANLY WAY, SUITE 102",RALEIGH,NC,27614,9197846811,No,No,-81.1385901464,35.2750155913,5
289,Chemo and Radiology,Randolph Health,340123.0,145,364 White Oak Street,Asheboro,NC,27204,(336) 625-5151,Yes,Yes,-76.7550922449,34.7249171951,5
290,Cancer Treatment Center,PARDEE CANCER CENTER,,,"805 6TH AVENUE WEST, SUITE 100",HENDERSONVILLE,NC,28739,8286928045,No,No,-81.2651110353,35.7141168023,5
291,Chemotherapy Only,Onslow Memorial Hospital,340042.0,162,317 Western Boulevard,Jacksonville,NC,28546,(910) 577-2345,Yes,Yes,-78.6943163717,34.3385475428,5
292,Chemotherapy Only,Novant Health Thomasville Medical Center,340085.0,108,207 Old Lexington Road,Thomasville,NC,27360,(336) 472-2000,Yes,No,-80.6138996876,36.4956323786,5
293,Chemo and Radiology,Novant Health Rowan Medical Center,340015.0,211,612 Mocksville Avenue,Salisbury,NC,28144,(704) 210-5000,No,No,-79.5036679131,36.0628887993,5
294,Chemo and Radiology,Novant Health Presbyterian Medical Center,340053.0,645,200 Hawthorne Lane,Charlotte,NC,28204,(704) 384-4000,No,No,-79.8255044128,36.083731114,5
295,Chemotherapy Only,Novant Health New Hanover Regional Medical Center,340141.0,800,2131 South 17th Street,Wilmington,NC,28401,(910) 667-7000,No,No,-79.7887749131,36.0908269817,5
296,Radiology Only,Novant Health Huntersville Medical Center,340183.0,135,10030 Gilead Road,Huntersville,NC,28078,(704) 316-4000,No,No,-78.936541974,36.0106038284,5
297,Cancer Treatment Center,NOVANT HEALTH CANCER INSTITUTE UNIVERSITY,,,"8401 UNIVERSITY EXECUTIVE PARK DRIVE, SUITE 130",CHARLOTTE,NC,28262,9803027050,No,No,-78.7839103671,35.739720499,5
298,Cancer Treatment Center,NOVANT HEALTH CANCER INSTITUTE MATTHEWS,,,1700 MATTHEWS TOWNSHIP PARKWAY,MATTHEWS,NC,28105,7048418151,No,No,-78.7075300229,35.8197820074,5
299,Cancer Treatment Center,NOVANT HEALTH CANCER INSTITUTE ELIZABETH -,,,125 QUEENS ROAD SUITE 520,CHARLOTTE,NC,28204,9803026500,No,No,-78.6194836621,35.8289770809,5
300,Cancer Treatment Center,NOVANT HEALTH CANCER INSTITUTE -BRUNSWICK FOREST,,,1333 S DICKINSON DRIVE,LELAND,NC,28451,9105238175,No,No,-78.898400878,36.0384612512,5
301,Cancer Treatment Center,NOVANT HEALTH CANCER INSTITUTE BALLANTYNE,,,10905 PROVIDENCE ROAD WEST,CHARLOTTE,NC,28277,9803027120,No,No,-78.9361481084,36.008086659,5
302,Cancer Treatment Center,NOVANT HEALTH CANCER INSTITUTE - ROWAN,,,"631 MOCKSVILLE AVENUE, SUITE 1020",SALISBURY,NC,28144,7042107600,Yes,Yes,-77.9605518272,34.9646245804,5
303,Cancer Treatment Center,NOVANT HEALTH CANCER INSTITUTE - MOUNT AIRY,,,1908 CAUDLE DR,MOUNT AIRY,NC,27030,3367836935,Yes,Yes,-77.5569309024,35.9218589362,5
304,Cancer Treatment Center,NOVANT HEALTH CANCER INSTITUTE - KERNERSVILLE,,,"1710 KERNERSVILLE MEDICAL PARKWAY, SUITE 116",KERNERSVILLE,NC,27284,3365644170,No,Yes,-77.403511916,35.605574928,5
305,Cancer Treatment Center,NOVANT HEALTH CANCER INSTITUTE - ELIZABETH,,,"125 QUEENS ROAD, SUITE 610 & 640",CHARLOTTE,NC,28204,9803026600,Yes,Yes,-77.6480950125,36.4346384427,5
306,Cancer Treatment Center,NOVANT HEALTH CANCER INSTITUTE -,,,"1213 LEXINGTON AVENUE, SUITE B",THOMASVILLE,NC,27360,3364811950,Yes,Yes,-76.9944229894,36.2847698043,5
307,Cancer Treatment Center,NOVANT HEALTH CANCER INSTITUTE -,,,1010 BETHESDA COURT,WINSTON SALEM,NC,27103,3362778800,Yes,Yes,-79.4579294601,35.2067740751,5
308,Cancer Treatment Center,NOVANT HEALTH CANCER INSTITUTE,,,"8201 HEALTHCARE LOOP, SUITE 201",CHARLOTTE,NC,28215,9803022000,No,No,-80.2993164679,36.0752844187,5
309,Chemotherapy Only,Novant Health Brunswick Medical Center,340158.0,65,240 Hospital Drive Northeast,Bolivia,NC,28422,(910) 721-1000,No,No,-81.3377363707,35.7376740155,5
310,Chemo and Radiology,Nash General Hospital,340147.0,345,2460 Curtis Ellis Drive,Rocky Mount,NC,27804,(252) 962-8000,Yes,Yes,-78.9929768252,34.6586933288,5
311,Chemotherapy Only,Mission Hospital McDowell,340087.0,33,430 Rankin Drive,Marion,NC,28752,(828) 659-5000,Yes,No,-83.2023163807,35.3854374426,5
312,Chemo and Radiology,Mission Hospital,340002.0,799,509 Biltmore Avenue,Asheville,NC,28801,(828) 213-1111,No,Yes,-82.943768782,35.5258154196,5
313,Cancer Treatment Center,MISSION HEALTH CANCER CENTER LAB,,,"21 HOSPITAL DRIVE,  ROOM 306",ASHEVILLE,NC,28801,8282130950,No,No,-80.0125376135,35.9635924995,5
314,Cancer Treatment Center,"MCCREARY CANCER CENTER, A SERVICE OF",,,212 MULBERRY ST SW,LENOIR,NC,28645,8287575277,No,No,-82.6007539791,35.5241346385,5
315,Chemo and Radiology,Maria Parham Medical Center,340132.0,135,566 Ruin Creek Road,Henderson,NC,27536,(252) 438-4143,Yes,No,-80.8382259872,36.2625243591,5
316,Radiology Only,Lexington Medical Center,340096.0,70,250 Hospital Drive,Lexington,NC,27292,(336) 248-5161,Yes,No,-80.8768311892,35.799465238,5
317,Cancer Treatment Center,LEVINE CANCER INSTITUTE - UNION WEST,,,1100 HEALING WAY SUITE 31,INDIAN TRAIL,NC,28104,9804429385,Yes,No,-80.1927334444,35.3641642562,5
318,Cancer Treatment Center,LEVINE CANCER INSTITUTE - BALLANTYNE,,,"15830 BALLANTYNE MEDICAL PLACE, SUITE 200",CHARLOTTE,NC,28277,9804429662,No,No,-81.1322956724,35.2687864542,5
319,Cancer Treatment Center,LEVINE CANCER INSTITUTE - A FACILITY OF CAROLINAS,,,100 MEDICAL PARK DR. SUITE 110,CONCORD,NC,28025,7044032170,No,No,-80.87054099,35.0896336674,5
320,Cancer Treatment Center,LEVINE CANCER INSTITUTE - A FACILITY OF  CMC,,,1021 MOREHEAD MEDICAL DRIVE,CHARLOTTE,NC,28204,7043557769,No,No,-80.7263044961,35.278132865,5
321,Cancer Treatment Center,LEVINE CANCER INSTITUTE - A FACILITY OF,,,"447 MCALISTER ROAD, SUITE 1600",LINCOLNTON,NC,28092,9802125148,Yes,No,-81.200752352,35.4888180343,5
322,Cancer Treatment Center,LEVINE CANCER INSTITUTE - A FACILITY OF,,,201 EAST GROVER ST,SHELBY,NC,28150,9804422610,Yes,Yes,-81.5360795248,35.3016232724,5
323,Cancer Treatment Center,LEVINE CANCER INSTITUTE - A FACILITY OF,,,"16455 STATESVILLE ROAD, SUITE 280",HUNTERSVILLE,NC,28078,4129963213,No,No,-80.8654279452,35.4386328978,5
324,Cancer Treatment Center,LEVINE CANCER INSTITUTE - A FACILITY,,,101 EAST WT HARRIS BLVD,CHARLOTTE,NC,28262,7048636183,No,Yes,-80.8384662964,35.2065976361,5
325,Cancer Treatment Center,LEVINE CANCER INSTITUTE,,,945 N 5TH STREET,ALBEMARLE,NC,28002,7049838268,No,No,-80.6031051374,35.4373172323,5
326,Cancer Treatment Center,LEVINE CANCER INSTITUTE,,,2610 ABERDEEN BOULEVARD,GASTONIA,NC,28054,7048655210,No,No,-80.8541363482,35.0569351926,5
327,Cancer Treatment Center,LEVINE CANCER INSTITUTE,,,"10660 PARK ROAD, SUITE2100",CHARLOTTE,NC,28210,9804429353,No,Yes,-80.6767361335,35.0941269123,5
328,Radiology Only,Iredell Memorial Hospital,340039.0,203,557 Brookdale Drive,Statesville,NC,28677,(704) 873-5661,Yes,No,-80.2877999005,35.8054929161,5
329,Chemo and Radiology,Hugh Chatham Memorial Hospital,340097.0,81,180 Parkwood Drive,Elkin,NC,28621,(336) 527-7000,Yes,Yes,-78.4480977983,36.3302057545,5
330,Cancer Treatment Center,HOPE- A WOMEN'S CANCER CENTER MISSION LAB,,,100 RIDGEFIELD COURT,ASHEVILLE,NC,28806,8286708403,No,Yes,-81.537417528,35.912419388,5
331,Chemo and Radiology,High Point Medical Center,340004.0,304,601 North Elm Street,High Point,NC,27262,(336) 878-6000,No,Yes,-82.5520785072,35.5788386267,5
332,Chemotherapy Only,Haywood Regional Medical Center,340184.0,154,262 Leroy George Drive,Clyde,NC,28721,(828) 456-7311,No,No,-82.5486977503,35.5781605307,5
333,Chemo and Radiology,Harris Regional Hospital,340016.0,82,68 Hospital Road,Sylva,NC,28779,(828) 586-7000,Yes,Yes,-82.0280682398,35.663657829,5
334,Cancer Treatment Center,GIBSON CANCER CENTER,,,1200 PINE RUN DRIVE,LUMBERTON,NC,28358,9106715730,No,Yes,-77.8501117033,35.9745025942,5
335,Chemo and Radiology,Frye Regional Medical Center,340116.0,355,420 North Center Street,Hickory,NC,28601,(828) 315-5000,No,Yes,-78.2600112562,34.0322306479,5
336,Chemo and Radiology,Forsyth Medical Center & Novant Cancer Institute,340014.0,908,3333 Silas Creek Parkway,Winston-Salem,NC,27103,(336) 718-5000,No,No,-80.6471669584,35.2239889117,5
337,Chemo and Radiology,FirstHealth Moore Regional Hospital,340115.0,449,155 Memorial Drive,Pinehurst,NC,28374,(910) 715-1000,Yes,No,-80.1119281259,35.883363353,5
338,Chemotherapy Only,ECU Health Roanoke-Chowan Hospital,340099.0,80,500 South Academy Street,Ahoskie,NC,27910,(252) 209-3000,No,No,-80.2952904964,36.0760560814,5
339,Chemotherapy Only,ECU Health North Hospital,340151.0,114,250 Smith Church Road,Roanoke Rapids,NC,27870,(252) 535-8011,No,No,-80.826814948,35.2117000777,5
340,Chemo and Radiology,ECU Health Medical Center,340040.0,1140,2100 Stantonsburg Road,Greenville,NC,27835,(252) 847-4100,No,No,-80.0458915532,36.0926085553,5
341,Chemotherapy Only,ECU Health Edgecombe Hospital,340107.0,101,111 Hospital Drive,Tarboro,NC,27886,(252) 641-7700,Yes,No,-80.6195260401,36.4874340391,5
342,Chemotherapy Only,ECU Health Duplin Hospital,340120.0,49,401 North Main Street,Kenansville,NC,28349,(910) 296-0941,Yes,No,-80.4713875523,35.6826226812,5
343,Chemo and Radiology,Duke University Hospital,340030.0,1079,2301 Erwin Road,Durham,NC,27710,(919) 684-8111,No,No,-80.8442882837,35.0413510804,5
344,Chemo and Radiology,Duke Regional Hospital,340155.0,373,3643 North Roxboro Road,Durham,NC,27704,(919) 470-4000,No,Yes,-78.0467982645,34.1989408574,5
345,Chemo and Radiology,Duke Raleigh Hospital,340073.0,186,3400 Wake Forest Road,Raleigh,NC,27609,(919) 954-3000,No,No,-80.826814948,35.2117000777,5
346,Cancer Treatment Center,DUKE CANCER CENTER AT MACON POND,,,4101 MACON POND ROAD,RALEIGH,NC,27607,9199543117,No,No,-80.7100013088,35.1222566632,5
347,Cancer Treatment Center,DUKE CANCER CENTER AT CARY,,,216 ASHVILLE AVENUE,CARY,NC,27518,9199543345,No,No,-80.7536870338,35.3038297665,5
348,Cancer Treatment Center,DUKE BLOOD CANCER CENTER LABORATORY,,,2400 PRATT ST. ROOM 3450,DURHAM,NC,27705,9196681065,No,No,-80.860645818,35.4079068524,5
349,Chemo and Radiology,Cone Health Moses Cone Hospital,340091.0,859,1200 North Elm Street,Greensboro,NC,27401,(336) 832-7000,No,No,-77.9237051485,34.2047358231,5
350,Cancer Treatment Center,CONE HEALTH CANCER CENTER,,,2400 WEST FRIENDLY AVENUE,GREENSBORO,NC,27403,3368320763,No,Yes,-80.8254093867,35.2129977221,5
351,Chemo and Radiology,Cone Health Alamance Regional Medical Center,340070.0,220,1240 Huffman Mill Road,Burlington,NC,27215,(336) 538-7000,Yes,No,-80.471431222,35.681682064,5
352,Cancer Treatment Center,COMPREHENSIVE CANCER CENTER OF WFUHS AT MT AIRY,,,450 PRICE STREET,MOUNT AIRY,NC,27030,3367868880,Yes,No,-80.1110139955,35.8818647107,5
353,Chemotherapy Only,Columbus Regional Healthcare System,340068.0,154,500 Jefferson Street,Whiteville,NC,28472,(910) 642-8011,No,Yes,-77.3828011553,34.7633327985,5
354,Chemo and Radiology,Catawba Valley Medical Center,340143.0,258,810 Fairgrove Church Road Southeast,Hickory,NC,28602,(828) 326-3000,No,Yes,-82.4705500819,35.3188612849,5
355,Chemo and Radiology,Carteret Health Care,340142.0,99,3500 Arendell Street,Morehead City,NC,28557,(252) 499-6000,Yes,No,-79.814816229,35.7118816002,5
356,Chemo and Radiology,CaroMont Regional Medical Center - Gastonia,340032.0,424,2525 Court Drive,Gastonia,NC,28054,(704) 834-2000,No,No,-78.5414123528,35.9467817964,5
357,Chemo and Radiology,CAROLINAS MEDICAL CENTER & LEVINE CANCER INSTITUTE,340113.0,1336,1000 BLYTHE BOULEVARD,CHARLOTTE,NC,28203,7044469110,Yes,Yes,-81.9647699511,35.3632892274,5
358,Chemo and Radiology,CarolinaEast Medical Center,340131.0,326,2000 Neuse Boulevard,New Bern,NC,28560,(252) 633-8111,Yes,Yes,-79.4705122055,34.7517773391,5
359,Chemo and Radiology,Cape Fear Valley Medical Center,340028.0,733,1638 Owen Drive,Fayetteville,NC,28304,(910) 615-4000,Yes,No,-76.2166878518,36.3238450106,5
360,Chemotherapy Only,Cape Fear Valley Betsy Johnson Hospital,340071.0,74,800 Tilghman Drive,Dunn,NC,28334,(910) 892-1000,No,No,-78.7076264148,35.8128603156,5
361,Chemotherapy Only,Caldwell Memorial Hospital,340041.0,137,"321 Mulberry Street, Southwest",Lenoir,NC,28645,(828) 757-5100,No,No,-81.6549018033,35.7261081206,5
362,Cancer Treatment Center,"BLUEWATER DERMATOLOGY AND SKIN CANCER CENTER, PA",,,"144 POOLE ROAD, SUITE 101",LELAND,NC,28451,9106400899,Yes,Yes,-78.3344092678,35.5131775213,5
363,Chemo and Radiology,Atrium Health Wake Forest Baptist Medical Center,340047.0,883,Medical Center Boulevard,Winston-Salem,NC,27157,(336) 716-2011,Yes,Yes,-77.5820565957,35.2915597499,5
364,Radiology Only,Atrium Health University City,340166.0,104,8800 North Tryon Street,Charlotte,NC,28262,(704) 863-6000,No,Yes,-82.4681333278,35.3206468817,5
365,Chemo and Radiology,Atrium Health Union,340130.0,183,600 Hospital Drive,Monroe,NC,28112,(980) 993-3100,Yes,Yes,-79.0121785081,34.6365177886,5
366,Chemo and Radiology,Atrium Health Stanly & Levine Cancer Institute,340119.0,109,301 Yadkin Street,Albemarle,NC,28002,(704) 984-4000,No,Yes,-77.9529858185,35.4009088014,5
367,Radiology Only,Atrium Health Pineville,340098.0,381,10628 Park Road,Charlotte,NC,28210,(704) 667-1000,No,No,-79.0508387792,35.9041880657,5
368,Cancer Treatment Center,ATRIUM HEALTH LEVINE CHILDREN'S CANCER,,,"1001 BLYTHE BOULEVARD, SUITE 3000",CHARLOTTE,NC,28203,7043819900,No,No,-78.7673479779,35.7452427064,5
369,Chemo and Radiology,Atrium Health Cleveland,340021.0,308,201 East Grover Street,Shelby,NC,28150,(980) 487-3000,No,No,-78.7050848811,35.815518771,5
370,Radiology Only,Atrium Health Cabarrus,340001.0,457,920 Church Street North,Concord,NC,28025,(704) 403-3000,Yes,Yes,-77.5566942476,35.9222373552,5
371,Cancer Treatment Center,"AMERICAN ONCOLOGY PARTNERS, PA",,,1860 SUGAR HILL ROAD,MARION,NC,28752,8282127024,No,No,-78.5442414966,35.9632375259,5
372,Cancer Treatment Center,"AMERICAN ONCOLOGY PARTNERS, PA",,,186 MEDICAL PARK LOOP,SYLVA,NC,28779,8282127026,No,No,-78.7838591536,35.7397059564,5
373,Cancer Treatment Center,"AMERICAN ONCOLOGY PARTNERS, PA",,,11921 SOUTH 226 HIGHWAY,SPRUCE PINE,NC,28777,8282127025,No,Yes,-78.5889257577,35.7862346553,5
374,Cancer Treatment Center,"AMERICAN ONCOLOGY PARTNERS, PA",,,10 ONE CENTER COURT,FRANKLIN,NC,28734,8282127023,Yes,No,-81.6524136354,36.1983326851,5
375,Chemotherapy Only,AdventHealth Hendersonville,340023.0,98,100 Hospital Drive,Hendersonville,NC,28792,(828) 684-8501,Yes,Yes,-81.1574961996,36.1583275796,5
376,Cancer Treatment Center,ADVENTHEALTH CANCER & INFUSION SERVICES,,,56 HOSPITAL DRIVE,COLUMBUS,NC,28722,8288940111,Yes,Yes,-77.9455713546,35.7188705568,5
377,Chemotherapy Only,Aiken Regional Medical Centers,420082.0,273,302 University Parkway,Aiken,SC,29801,(803) 641-5000,No,No,-81.7646215026,33.5694638796,5
378,Cancer Treatment Center,ANDERSON AREA CANCER CENTER,,,2000 E GREENVILLE ST STE 5000,ANDERSON,SC,29621,8642245765,No,No,-82.6293815312,34.5448334303,5
379,Cancer Treatment Center,ANDERSON SKIN & CANCER CLINIC,,,200 CARWELLYN ROAD,ABBEVILLE,SC,29620,8642247577,Yes,No,-82.3885244422,34.1657150044,5
380,Cancer Treatment Center,ANDERSON SKIN & CANCER CLINIC PA,,,106 MUNICIPAL DRIVE,SENECA,SC,29672,8648827747,Yes,Yes,-82.9966185256,34.710477481,5
381,Chemo and Radiology,AnMed Medical Center,420027.0,394,800 North Fant Street,Anderson,SC,29621,(864) 512-1000,No,No,-82.647574955,34.5118122522,5
382,Cancer Treatment Center,"ASSOCIATED MEDICAL SPECIALISTS, PA",,,4620 HWY 17,MURRELLS INLET,SC,29576,8433577357,Yes,No,-79.0485927581,33.5495636236,5
383,Cancer Treatment Center,"ASSOCIATED MEDICAL SPECIALISTS, PA DBA",,,817 FARRAR DRIVE,CONWAY,SC,29526,8432341660,No,Yes,-79.0184714734,33.7759860949,5
384,Cancer Treatment Center,"ASSOCIATED MEDICAL SPECIALISTS, PA DBA",,,8121 ROURKE STREET,MYRTLE BEACH,SC,29572,8436925000,No,Yes,-78.8185976999,33.7558911525,5
385,Cancer Treatment Center,"ASSOCIATED MEDICAL SPECIALISTS, PA DBA COASTAL",,,4708 OLEANDER DRIVE,MYRTLE BEACH,SC,29577,8436925000,No,Yes,-78.8609210303,33.7327222311,5
386,Cancer Treatment Center,"ASSOCIATED MEDICAL SPECIALISTS,PA DBA",,,3008 BAYBORO STREET,LORIS,SC,29569,8437560932,No,Yes,-78.901273943,34.0584450001,5
387,Chemo and Radiology,Beaufort Memorial Hospital,420067.0,195,955 Ribaut Road,Beaufort,SC,29902,(843) 522-5200,Yes,No,-80.6885190777,32.4168343853,5
388,Chemo and Radiology,Bon Secours Saint Francis Hospital,420065.0,186,2095 Henry Tecklenburg Drive,Charleston,SC,29414,(843) 402-1000,No,No,-80.0416771323,32.8104636878,5
389,Cancer Treatment Center,CAROLINA BLOOD AND CANCER CARE ASSOCIATES,,,2403 CHARLOTTE HWY,LANCASTER,SC,29720,8033297772,Yes,Yes,-80.7887209107,34.7728218042,5
390,Cancer Treatment Center,CAROLINA BLOOD AND CANCER CARE ASSOCIATES,,,1583 HEALTH CARE DRIVE,ROCK HILL,SC,29732,8033297772,No,No,-81.0494574909,34.9514136533,5
391,Chemo and Radiology,CONWAY MEDICAL CENTER and CANCER CENTER,,,394 SINGLETON RIDGE ROAD,CONWAY,SC,29526,8433478050,No,Yes,-79.0046699992,33.7857558736,5
392,Cancer Treatment Center,"DERMATOLOGY & SKIN CANCER CENTER OF SC, PC",,,8683 OCEAN HIGHWAY,PAWLEYS ISLAND,SC,29585,3054916039,Yes,No,-79.154944615,33.4266217488,5
393,Cancer Treatment Center,"DERMATOLOGY AND SKIN CANCER CENTER OF SC, PC",,,"5046 HWY 17 BYPASS, STE 103",MYRTLE BEACH,SC,29588,3054916039,No,Yes,-78.9695127769,33.6671141412,5
394,Cancer Treatment Center,GIBBS CANCER CENTER AND RESEARCH INSTITUTE-PELHAM,,,2759 HWY 14 SOUTH,GREER,SC,29651,8648499700,No,No,-82.2213783125,34.8633989761,5
395,Radiology Only,Grand Strand Regional Medical Center,420085.0,382,809 82nd Parkway,Myrtle Beach,SC,29572,(843) 692-1000,No,Yes,-78.8164536929,33.7585562206,5
396,Chemotherapy Only,Hampton Regional Medical Center,420072.0,32,595 West Carolina Avenue,Varnville,SC,29944,(803) 943-2771,Yes,Yes,-81.0875516483,32.8551276647,5
397,Cancer Treatment Center,HILTON HEAD DERM AND SKIN CANCER CTR,,,15 HOSPITAL CENTER BOULEVARD SUITE 1,HILTON HEAD ISLAND,SC,29926,8436899200,Yes,Yes,-80.714307763,32.2208581549,5
398,Cancer Treatment Center,LEVINE CANCER INSTITUTE - ROCK HILL,,,"1656 RIVERCHASE BLVD, STE 1400",ROCK HILL,SC,29732,7046618910,No,No,-80.9915384562,34.9794188072,5
399,Chemo and Radiology,Lexington Medical Center,420073.0,541,2720 Sunset Blvd,West Columbia,SC,29169,(803) 791-2000,No,No,-81.1155662318,34.0046396358,5
400,Chemo and Radiology,McLeod Regional Medical Center,420051.0,547,555 East Cheve St,Florence,SC,29506,(843) 777-2000,No,No,-79.7592077496,34.1959399796,5
401,Chemo and Radiology,MUSC Health - Orangeburg,420068.0,286,3000 Saint Matthews Road,Orangeburg,SC,29118,(843) 792-1414,Yes,Yes,-80.8326636724,33.5412242839,5
402,Chemo and Radiology,MUSC Health Florence Medical Center,420091.0,216,805 Pamplico Highway,Florence,SC,29505,(843) 674-5000,No,No,-79.7538150846,34.1584167975,5
403,Cancer Treatment Center,MUSC HEALTH HF MABRY CANCER CENTER- PART OF MUSC,,,1161 COOK ROAD,ORANGEBURG,SC,29118,8035334600,Yes,Yes,-80.827506655,33.5397846506,5
404,Chemotherapy Only,MUSC Health Kershaw Medical Center,420048.0,119,1315 Roberts Street,Camden,SC,29020,(803) 432-4311,Yes,Yes,-80.5896852075,34.2533128496,5
405,Chemo and Radiology,MUSC Health University Medical Center,420004.0,922,171 Ashley Avenue,Charleston,SC,29425,(843) 792-1414,No,Yes,-79.9466683436,32.785579326,5
406,Chemotherapy Only,Newberry County Memorial Hospital,420053.0,48,2669 Kinard Street,Newberry,SC,29108,(803) 276-7570,Yes,Yes,-81.6048908427,34.2895167201,5
407,Chemotherapy Only,Piedmont Medical Center,420002.0,394,222 South Herlong Avenue,Rock Hill,SC,29732,(803) 329-1234,No,No,-81.0518452437,34.9552765791,5
408,Cancer Treatment Center,PRISMA HEALTH - UPSTATE,,,900 WEST FARIS ROAD,GREENVILLE,SC,29605,8646793966,No,No,-82.4116867419,34.8160558915,5
409,Cancer Treatment Center,PRISMA HEALTH - UPSTATE DBA,,,"340 MEDICAL PKWY, SUITE 100",GREER,SC,29650,8646794034,No,No,-82.2432657249,34.9191654124,5
410,Cancer Treatment Center,PRISMA HEALTH - UPSTATE DBA,,,131 LILA DOYLE DRIVE,SENECA,SC,29672,8648861978,Yes,Yes,-82.984978409,34.694236873,5
411,Cancer Treatment Center,PRISMA HEALTH - UPSTATE DBA PRISMA HEALTH,,,65 INTERNATIONAL DRIVE,GREENVILLE,SC,29615,8642690002,No,No,-82.3200590454,34.8481327644,5
412,Cancer Treatment Center,PRISMA HEALTH - UPSTATE DBA PRISMA HEALTH,,,3 BUTTERNUT DRIVE ,GREENVILLE,SC,29605,8642640002,No,No,-82.4193372402,34.8140810313,5
413,Chemo and Radiology,Prisma Health Greenville Memorial Hospital,420078.0,807,701 Grove Road,Greenville,SC,29605,(864) 455-7000,No,No,-82.4133071315,34.8177687753,5
414,Chemotherapy Only,Prisma Health Greer Memorial Hospital,420033.0,74,830 South Buncombe Road,Greer,SC,29650,(864) 797-8000,No,No,-82.2427242539,34.9207648052,5
415,Chemotherapy Only,Prisma Health Oconee Memorial Hospital,420009.0,141,298 Memorial Drive,Seneca,SC,29672,(864) 482-3100,Yes,Yes,-82.9864873192,34.6946507714,5
416,Chemotherapy Only,Prisma Health Richland Hospital,420018.0,601,5 Richland Medical Park Dr,Columbia,SC,29203,(803) 434-7000,No,No,-81.032708772,34.0289243143,5
417,Chemo and Radiology,Prisma Health Tuomey Hospital,420070.0,182, 129 North Washington Street,Sumter,SC,29150,(803) 774-9000,No,Yes,-80.3443033157,33.923815961,5
418,Radiology Only,Roper Hospital,420087.0,332,315 Calhoun Street,Charleston,SC,29401,(843) 724-2000,No,Yes,-79.9499295745,32.7820098506,5
419,Radiology Only,Roper St. Francis Berkeley Hospital,420110.0,46,100 Callem Blvd,Summerville,SC,29486,(854) 529-3100,No,No,-80.0963272248,33.0697907615,5
420,Chemo and Radiology,Saint Francis Downtown,420023.0,346,One Saint Frances Drive,Greenville,SC,29601,(864) 255-1000,No,No,-82.4209583003,34.8395815049,5
421,Chemo and Radiology,SELF REGIONAL Healthcare & CANCER CENTER,,,1325 SPRING STREET,GREENWOOD,SC,29646,8647257100,Yes,No,-82.1572219684,34.1747723632,5
422,Cancer Treatment Center,SIRI CANCER BLOOD AND INFUSION CENTER,,,3617 HIGHWAY 81 N,ANDERSON,SC,29621,8645408430,No,No,-82.6170665038,34.5958539912,5
423,Cancer Treatment Center,"SKIN CANCER CENTRE, PA",,,1409 NORTH FANT STREET,ANDERSON,SC,29621,8642318599,No,No,-82.6499747777,34.5172913766,5
424,Cancer Treatment Center,"SOUTH CAROLINA CANCER SPECIALISTS, PA",,,45 HOSPITAL CENTER COMMONS,HILTON HEAD ISLAND,SC,29926,8436892895,Yes,Yes,-80.7128828244,32.222911154,5
425,Cancer Treatment Center,SOUTH CAROLINA SKIN CANCER CENTER,,,300 ASHBY PARK LANE,GREENVILLE,SC,29607,8642881154,No,No,-82.2746979456,34.8140955739,5
426,Chemo and Radiology,Spartanburg Medical Center,420007.0,658,101 East Wood Drive,Spartanburg,SC,29303,(864) 560-6000,No,Yes,-81.9394544242,34.9678473384,5
427,Cancer Treatment Center,"ST FRANCIS HOSPITAL, INC CANCER CENTER",,,104 INNOVATION DRIVE,GREENVILLE,SC,29607,8643518962,No,No,-82.3170304123,34.8058167262,5
428,Chemotherapy Only,Tidelands Georgetown Memorial Hospital,420020.0,69,606 Black River Road,Georgetown,SC,29440,(843) 527-7000,Yes,No,-79.2854733948,33.3794230425,5
429,Chemo and Radiology,Trident Medical Center,420079.0,442,9330 Medical Plaza Drive,Charleston,SC,29406,(843) 797-7000,No,No,-80.0734648295,32.9768444658,5
430,Chemotherapy Only,Abbeville General Hospital,190034.0,60,118 North Hospital Drive,Abbeville,LA,70510,(337) 893-5466,YES,Yes,-92.1070183032,29.9735810235,5
431,Cancer Treatment Center,ARKLATEX UROLOGY & PROSTATE CANCER INSTITUTE,,,#2 MEDICAL PLAZA,MINDEN,LA,71055,3188414004,YES,Yes,-93.2856731458,32.6171576384,5
432,Chemo and Radiology,Baton Rouge General - Bluebonnet,190065.0,350,8585 Picardy Avenue,Baton Rouge,LA,70809,(225) 763-4000,No,No,-91.0941068787,30.3942005152,5
433,Chemotherapy Only,Beauregard Health System,190050.0,49,600 South Pine Street,DeRidder,LA,70634,(337) 462-7100,YES,Yes,-93.2890155135,30.8414120976,5
434,Cancer Treatment Center,"BENSON DERMATOLOGY AND SKIN CANCER, LLC",,,"190 GREENBRIAR BLVD, STE 103",COVINGTON,LA,70433,9858987999,No,No,-90.1362509793,30.457351031,5
435,Cancer Treatment Center,CHRISTUS CANCER TREATMENT CENTER-BOSSIER,,,2541 VIKING DR,BOSSIER CITY,LA,71112,3188482970,No,Yes,-93.7149597768,32.5552381308,5
436,Chemotherapy Only,CHRISTUS Ochsner Lake Area Hospital,190201.0,88,4200 Nelson Road,Lake Charles,LA,70605,(337) 474-6370,No,No,-93.2493671837,30.1811461571,5
437,Radiology Only,CHRISTUS Ochsner St. Patrick Hospital,190027.0,148,524 Dr. Michael DeBakey Dr,Lake Charles,LA,70601,(337) 436-2511,No,Yes,-93.2274906678,30.2155053384,5
438,Chemo and Radiology,CHRISTUS Saint Frances Cabrini Hospital,190019.0,293,3330 Masonic Drive,Alexandria,LA,71301,(318) 487-1122,No,Yes,-92.4614557123,31.2817643077,5
439,Chemo and Radiology,CHRISTUS Shreveport Bossier - Highland Medical Center,190041.0,214,1453 East Bert Kouns,Shreveport,LA,71105,(318) 681-4500,No,No,-93.7182883144,32.4259859987,5
440,Chemotherapy Only,Desoto Regional Health System,190118.0,34,207 Jefferson Street,Mansfield,LA,71052,(318) 872-4610,YES,Yes,-93.7091067777,32.0350930523,5
441,Chemo and Radiology,East Jefferson General Hospital,190146.0,335,4200 Houma Boulevard,Metairie,LA,70006,(504) 503-4000,No,No,-90.1811864461,30.0136138732,5
442,Chemotherapy Only,Iberia Medical Center,190054.0,159,2315 East Main Street,New Iberia,LA,70560,(337) 364-0441,YES,Yes,-91.785671139,29.9890293321,5
443,Chemo and Radiology,Lake Charles Memorial Hospital,190060.0,320,1701 Oak Park Boulevard,Lake Charles,LA,70601,(337) 494-3000,No,No,-93.1966706613,30.2034970467,5
444,Chemotherapy Only,Lane Regional Medical Center,190020.0,139,6300 Main Street,Zachary,LA,70791,(225) 658-4000,No,No,-91.1374265659,30.6500281443,5
445,Chemotherapy Only,Leonard J. Chabert Medical Center,190183.0,88,1978 Industrial Boulevard,Houma,LA,70363,(985) 873-2200,No,Yes,-90.6881806118,29.5713630363,5
446,Cancer Treatment Center,LSU HEALTH-S/FEIST-WEILLER CANCER CENTER,,,2015 FAIRFIELD SUITE 2B,SHREVEPORT,LA,71104,3188134013,No,Yes,-93.7511216541,32.4921504373,5
447,Chemo and Radiology,Natchitoches Regional Medical Center,190007.0,208,501 Keyser Avenue,Natchitoches,LA,71457,(318) 214-4200,YES,Yes,-93.0776023739,31.75342389,5
448,Chemotherapy Only,North Oaks Medical Center,190015.0,247,15790 Paul Vega MD Drive,Hammond,LA,70403,(985) 345-2700,YES,Yes,-90.4608805806,30.4659807032,5
449,Chemotherapy Only,Ochsner Acadia General Hospital,190044.0,54,1305 Crowley-Rayne Highway,Crowley,LA,70526,(337) 783-3222,YES,Yes,-92.3632673325,30.2257416538,5
450,Cancer Treatment Center,OCHSNER CLINIC FOUNDATION INFECTIOUS DISEASE,,,BENSON CANCER CENTER RM 1N103,NEW ORLEANS,LA,70121,5048425223,No,Yes,-90.158747,29.963198,5
451,Chemo and Radiology,Ochsner Lafayette General Medical Center,190002.0,432,1214 Coolidge Street,Lafayette,LA,70503,(337) 289-7991,No,Yes,-92.0189073179,30.2020821395,5
452,Chemotherapy Only,Ochsner LSU Health - Monroe Medical Center,190011.0,110,4864 Jackson Street,Monroe,LA,71202,(318) 330-7000,No,Yes,-92.1054907013,32.4510620965,5
453,Chemotherapy Only,Ochsner LSU Health - St. Mary Medical Center,190317.0,118,915 Margaret Place,Shreveport,LA,71101,(318) 626-4300,No,Yes,-93.7495682359,32.4959905224,5
454,Chemo and Radiology,Ochsner LSU Health Shreveport - Academic Medical Center,190098.0,273,1541 Kings Highway,Shreveport,LA,71104,(318) 626-0000,No,Yes,-93.7615726439,32.4817331931,5
455,Chemo and Radiology,Ochsner Medical Center - Baton Rouge,190202.0,171,17000 Medical Center Drive,Baton Rouge,LA,70816,(225) 752-2470,No,No,-91.0008717845,30.4426629611,5
456,Chemotherapy Only,Ochsner Medical Center - Kenner,190274.0,115,180 West Esplanade Avenue,Kenner,LA,70065,(504) 468-8600,No,No,-90.2714021272,30.0229936838,5
457,Chemo and Radiology,Ochsner Medical Center-New Orleans,190036.0,1053,1514 Jefferson Highway,New Orleans,LA,70121,(504) 842-3000,No,No,-90.1449342119,29.9626995949,5
458,Cancer Treatment Center,OCHSNER ST TAMMANY CANCER CENTER,,,900 OCHSNER BLVD,COVINGTON,LA,70433,9852492383,No,No,-90.1418305608,30.4507552695,5
459,Chemotherapy Only,Ochsner University Hospital and Clinics,190006.0,52,2390 West Congress,Lafayette,LA,70506,(337) 261-6000,No,No,-92.0458496046,30.2157071746,5
460,Cancer Treatment Center,OLHS FEIST-WEILLER CANCER CENTER,,,1405 KINGS HIGHWAY,SHREVEPORT,LA,71103,3186261224,No,Yes,-93.7591550377,32.4817620322,5
461,Chemo and Radiology,Opelousas General Main Campus,190017.0,197,539 East Prudhomme Street,Opelousas,LA,70570,(337) 948-3011,YES,Yes,-92.0755643733,30.5434552629,5
462,Chemotherapy Only,Our Lady of Lourdes Regional Medical Center,190102.0,379,4801 Ambassador Caffery Parkway,Lafayette,LA,70508,(337) 470-2000,No,No,-92.0380420294,30.148655763,5
463,Chemotherapy Only,Our Lady of the Lake Regional Medical Center,190064.0,744,5000 Hennessy Boulevard,Baton Rouge,LA,70808,(225) 765-6565,No,No,-91.1073195241,30.4026185863,5
464,Cancer Treatment Center,PONCHARTRAIN CANCER CENTER,,,15799 PROFESSIONAL PLAZA,HAMMOND,LA,70403,9858751202,YES,Yes,-90.4595598441,30.4745393388,5
465,Cancer Treatment Center,PONCHARTRAIN CANCER CENTER,,,120 LAKEVIEW CIRCLE,COVINGTON,LA,70433,9858751202,No,No,-90.0805948908,30.4091024913,5
466,Cancer Treatment Center,QUEST DIAGNOSTICS MARY BIRD PERKINS CANCER CENTER,,,"1203 S TYLER STREET, SUITE #110",COVINGTON,LA,70433,3187731594,No,No,-90.1143095876,30.468604197,5
467,Cancer Treatment Center,RAPIDES CANCER CENTER,,,"605 MEDICAL CENTER DRIVE, SUITE A",ALEXANDRIA,LA,71301,3187697200,No,Yes,-92.4511023017,31.3130158146,5
468,Radiology Only,Rapides Regional Medical Center,190026.0,375,211 Fourth Street,Alexandria,LA,71301,(318) 769-3000,No,Yes,-92.4497314414,31.3145056559,5
469,Chemotherapy Only,Saint Charles Parish Hospital,190079.0,57,1057 Paul Maillard Road,Luling,LA,70070,(985) 785-6242,No,Yes,-90.3716762598,29.9245667969,5
470,Chemotherapy Only,Saint Francis Medical Center,190125.0,352,309 Jackson Street,Monroe,LA,71201,(318) 966-4000,No,Yes,-92.1147412211,32.4996970419,5
471,Chemotherapy Only,Saint Tammany Parish Hospital,190045.0,229,1202 South Tyler Street,Covington,LA,70433,(985) 898-4000,No,No,-90.1137700445,30.4690181792,5
472,Chemo and Radiology,Savoy Medical Center,190025.0,60,801 Poinciana Avenue,Mamou,LA,70554,(337) 468-5261,YES,Yes,-92.4180723226,30.6410616453,5
473,Chemotherapy Only,Slidell Memorial Hospital,190040.0,301,1001 Gause Boulevard,Slidell,LA,70458,(985) 280-2200,No,No,-89.7696724673,30.2846176085,5
474,Cancer Treatment Center,SLIDELL MEMORIAL HOSPITAL REGIONAL CANCER CENTER,,,1120 ROBERT BOULEVARD,SLIDELL,LA,70458,9852801507,No,No,-89.7710998216,30.2875917592,5
475,Chemotherapy Only,Terrebonne General Health System,190008.0,171,8166 Main Street,Houma,LA,70360,(985) 873-4141,No,Yes,-90.7141042457,29.5985117273,5
476,Chemo and Radiology,Thibodaux Regional Health System,190004.0,184,602 North Acadia Road,Thibodaux,LA,70301,(985) 447-5500,No,No,-90.8066569692,29.780437122,5
477,Chemo and Radiology,Touro LCMC Health,190046.0,339,1401 Foucher Street,New Orleans,LA,70115,(504) 584-7833,No,Yes,-90.0928852754,29.9253901513,5
478,Chemo and Radiology,University Medical Center New Orleans,190005.0,370,2000 Canal Street,New Orleans,LA,70112,(504) 702-3000,No,Yes,-90.0810776884,29.9611735856,5
479,Chemotherapy Only,West Calcasieu Cameron Hospital,190013.0,107,701 Cypress Street,Sulphur,LA,70663,(337) 527-7034,No,No,-93.3685061305,30.2310288326,5
480,Cancer Treatment Center,WEST JEFFERSON CANCER CENTER,,,4513 WESTBANK EXPRESSWAY,MARRERO,LA,70072,5043496630,No,No,-90.0953011075,29.8947972944,5
481,Chemo and Radiology,West Jefferson Medical Center,190039.0,217,1101 Medical Center Boulevard,Marrero,LA,70072,(504) 508-5433,No,No,-90.0956786285,29.8896888177,5
482,Cancer Treatment Center,WILLIS KNIGHTON UROLOGIC CANCER CARE,,,"8001 YOUREE DRIVE, SUITE 350",SHREVEPORT,LA,71115,3182123369,No,No,-93.7111766048,32.43090056,5
483,Chemo and Radiology,Willis-Knighton North,190111.0,763,2600 Greenwood Road,Shreveport,LA,71103,(318) 212-4000,No,Yes,-93.7791126844,32.483842253,5
484,Cancer Treatment Center,WK ARK-LA-TEX UROLOGY AND PROSTATE,,,2449 HOSPITAL DRIVE SUITE 340,BOSSIER CITY,LA,71111,3182127850,No,No,-93.7139118713,32.5584068254,5
485,Chemo and Radiology,Woman's Hospital,190128.0,228,100 Woman's Way,Baton Rouge,LA,70817,(225) 927-1300,No,No,-91.0378807369,30.3849907733,5
